<?xml version="1.0" encoding="UTF-8"?><gpx creator="Wikiloc - https://www.wikiloc.com" version="1.1" xmlns="http://www.topografix.com/GPX/1/1" xmlns:xsi="http://www.w3.org/2001/XMLSchema-instance" xsi:schemaLocation="http://www.topografix.com/GPX/1/1 http://www.topografix.com/GPX/1/1/gpx.xsd"><metadata><name>Wikiloc - Tārke Ghyāng - Ama Yangri - Tarkeghyang</name><author><name>Diego Contenti</name><link href="https://www.wikiloc.com/wikiloc/user.do?id=6800157"><text>Diego Contenti on Wikiloc</text></link></author><link href="https://www.wikiloc.com/hiking-trails/tarke-ghyang-ama-yangri-tarkeghyang-200238549"><text>Tārke Ghyāng - Ama Yangri - Tarkeghyang on Wikiloc</text></link><time>2025-02-03T11:02:44.053Z</time></metadata><trk><name>Tārke Ghyāng - Ama Yangri - Tarkeghyang - Wikiloc</name><cmt></cmt><desc></desc><trkseg><trkpt lat="28.015276" lon="85.570224"><ele>3723.349</ele><time>2025-02-03T07:33:52.999Z</time></trkpt><trkpt lat="28.015240" lon="85.570191"><ele>3723.402</ele><time>2025-02-03T07:34:01.998Z</time></trkpt><trkpt lat="28.015197" lon="85.570151"><ele>3723.522</ele><time>2025-02-03T07:34:08.998Z</time></trkpt><trkpt lat="28.015172" lon="85.570108"><ele>3724.509</ele><time>2025-02-03T07:34:14.998Z</time></trkpt><trkpt lat="28.015146" lon="85.570055"><ele>3726.026</ele><time>2025-02-03T07:34:23.998Z</time></trkpt><trkpt lat="28.015121" lon="85.570006"><ele>3727.424</ele><time>2025-02-03T07:34:29.998Z</time></trkpt><trkpt lat="28.015087" lon="85.569970"><ele>3727.094</ele><time>2025-02-03T07:34:36.998Z</time></trkpt><trkpt lat="28.015043" lon="85.569935"><ele>3726.356</ele><time>2025-02-03T07:34:51.998Z</time></trkpt><trkpt lat="28.015021" lon="85.569882"><ele>3726.527</ele><time>2025-02-03T07:34:57.998Z</time></trkpt><trkpt lat="28.014985" lon="85.569844"><ele>3725.652</ele><time>2025-02-03T07:35:01.998Z</time></trkpt><trkpt lat="28.014950" lon="85.569788"><ele>3724.179</ele><time>2025-02-03T07:35:07.998Z</time></trkpt><trkpt lat="28.014910" lon="85.569748"><ele>3722.098</ele><time>2025-02-03T07:35:14.998Z</time></trkpt><trkpt lat="28.014877" lon="85.569709"><ele>3720.413</ele><time>2025-02-03T07:35:19.998Z</time></trkpt><trkpt lat="28.014844" lon="85.569673"><ele>3718.817</ele><time>2025-02-03T07:35:24.998Z</time></trkpt><trkpt lat="28.014800" lon="85.569639"><ele>3716.587</ele><time>2025-02-03T07:35:29.998Z</time></trkpt><trkpt lat="28.014770" lon="85.569595"><ele>3715.315</ele><time>2025-02-03T07:35:33.998Z</time></trkpt><trkpt lat="28.014728" lon="85.569559"><ele>3713.209</ele><time>2025-02-03T07:35:37.998Z</time></trkpt><trkpt lat="28.014688" lon="85.569522"><ele>3711.363</ele><time>2025-02-03T07:35:42.998Z</time></trkpt><trkpt lat="28.014656" lon="85.569477"><ele>3710.231</ele><time>2025-02-03T07:35:46.998Z</time></trkpt><trkpt lat="28.014608" lon="85.569451"><ele>3707.681</ele><time>2025-02-03T07:35:50.998Z</time></trkpt><trkpt lat="28.014578" lon="85.569409"><ele>3706.633</ele><time>2025-02-03T07:35:59.998Z</time></trkpt><trkpt lat="28.014538" lon="85.569378"><ele>3704.854</ele><time>2025-02-03T07:36:04.998Z</time></trkpt><trkpt lat="28.014499" lon="85.569347"><ele>3703.099</ele><time>2025-02-03T07:36:08.998Z</time></trkpt><trkpt lat="28.014473" lon="85.569295"><ele>3702.626</ele><time>2025-02-03T07:36:12.998Z</time></trkpt><trkpt lat="28.014426" lon="85.569288"><ele>3699.855</ele><time>2025-02-03T07:36:28.998Z</time></trkpt><trkpt lat="28.014405" lon="85.569232"><ele>3699.940</ele><time>2025-02-03T07:36:33.998Z</time></trkpt><trkpt lat="28.014366" lon="85.569196"><ele>3698.423</ele><time>2025-02-03T07:36:38.998Z</time></trkpt><trkpt lat="28.014320" lon="85.569185"><ele>3695.983</ele><time>2025-02-03T07:37:01.998Z</time></trkpt><trkpt lat="28.014304" lon="85.569126"><ele>3694.611</ele><time>2025-02-03T07:37:12.998Z</time></trkpt><trkpt lat="28.014321" lon="85.569078"><ele>3694.709</ele><time>2025-02-03T07:37:16.998Z</time></trkpt><trkpt lat="28.014337" lon="85.569029"><ele>3694.714</ele><time>2025-02-03T07:37:28.998Z</time></trkpt><trkpt lat="28.014379" lon="85.569001"><ele>3696.782</ele><time>2025-02-03T07:37:37.998Z</time></trkpt><trkpt lat="28.014406" lon="85.568960"><ele>3697.512</ele><time>2025-02-03T07:37:47.998Z</time></trkpt><trkpt lat="28.014399" lon="85.568908"><ele>3696.134</ele><time>2025-02-03T07:37:51.998Z</time></trkpt><trkpt lat="28.014390" lon="85.568855"><ele>3694.585</ele><time>2025-02-03T07:37:58.998Z</time></trkpt><trkpt lat="28.014371" lon="85.568800"><ele>3692.280</ele><time>2025-02-03T07:38:05.998Z</time></trkpt><trkpt lat="28.014336" lon="85.568763"><ele>3689.467</ele><time>2025-02-03T07:38:27.998Z</time></trkpt><trkpt lat="28.014315" lon="85.568713"><ele>3687.276</ele><time>2025-02-03T07:38:34.998Z</time></trkpt><trkpt lat="28.014291" lon="85.568664"><ele>3684.861</ele><time>2025-02-03T07:38:45.998Z</time></trkpt><trkpt lat="28.014313" lon="85.568614"><ele>3685.166</ele><time>2025-02-03T07:38:52.998Z</time></trkpt><trkpt lat="28.014314" lon="85.568553"><ele>3684.029</ele><time>2025-02-03T07:38:58.998Z</time></trkpt><trkpt lat="28.014314" lon="85.568495"><ele>3682.821</ele><time>2025-02-03T07:39:05.998Z</time></trkpt><trkpt lat="28.014290" lon="85.568449"><ele>3680.509</ele><time>2025-02-03T07:39:11.998Z</time></trkpt><trkpt lat="28.014306" lon="85.568390"><ele>3680.388</ele><time>2025-02-03T07:39:18.998Z</time></trkpt><trkpt lat="28.014315" lon="85.568336"><ele>3679.826</ele><time>2025-02-03T07:39:27.998Z</time></trkpt><trkpt lat="28.014316" lon="85.568284"><ele>3678.116</ele><time>2025-02-03T07:39:36.998Z</time></trkpt><trkpt lat="28.014299" lon="85.568231"><ele>3675.468</ele><time>2025-02-03T07:39:56.998Z</time></trkpt><trkpt lat="28.014309" lon="85.568172"><ele>3674.049</ele><time>2025-02-03T07:40:05.998Z</time></trkpt><trkpt lat="28.014259" lon="85.568160"><ele>3670.854</ele><time>2025-02-03T07:40:16.998Z</time></trkpt><trkpt lat="28.014212" lon="85.568148"><ele>3667.821</ele><time>2025-02-03T07:40:27.998Z</time></trkpt><trkpt lat="28.014163" lon="85.568181"><ele>3665.950</ele><time>2025-02-03T07:40:34.998Z</time></trkpt><trkpt lat="28.014126" lon="85.568212"><ele>3663.935</ele><time>2025-02-03T07:40:45.998Z</time></trkpt><trkpt lat="28.014073" lon="85.568230"><ele>3660.064</ele><time>2025-02-03T07:41:01.998Z</time></trkpt><trkpt lat="28.014061" lon="85.568288"><ele>3660.906</ele><time>2025-02-03T07:41:11.998Z</time></trkpt><trkpt lat="28.014050" lon="85.568343"><ele>3661.516</ele><time>2025-02-03T07:41:21.998Z</time></trkpt><trkpt lat="28.014015" lon="85.568383"><ele>3659.409</ele><time>2025-02-03T07:41:27.998Z</time></trkpt><trkpt lat="28.013984" lon="85.568433"><ele>3657.738</ele><time>2025-02-03T07:41:32.998Z</time></trkpt><trkpt lat="28.013935" lon="85.568461"><ele>3654.216</ele><time>2025-02-03T07:41:35.998Z</time></trkpt><trkpt lat="28.013906" lon="85.568500"><ele>3652.576</ele><time>2025-02-03T07:41:39.998Z</time></trkpt><trkpt lat="28.013870" lon="85.568548"><ele>3650.438</ele><time>2025-02-03T07:41:51.998Z</time></trkpt><trkpt lat="28.013826" lon="85.568577"><ele>3647.289</ele><time>2025-02-03T07:41:59.998Z</time></trkpt><trkpt lat="28.013789" lon="85.568612"><ele>3644.864</ele><time>2025-02-03T07:42:05.998Z</time></trkpt><trkpt lat="28.013748" lon="85.568643"><ele>3641.971</ele><time>2025-02-03T07:42:10.998Z</time></trkpt><trkpt lat="28.013756" lon="85.568707"><ele>3643.780</ele><time>2025-02-03T07:42:16.999Z</time></trkpt><trkpt lat="28.013747" lon="85.568761"><ele>3643.975</ele><time>2025-02-03T07:42:28.999Z</time></trkpt><trkpt lat="28.013736" lon="85.568822"><ele>3644.143</ele><time>2025-02-03T07:42:34.999Z</time></trkpt><trkpt lat="28.013694" lon="85.568868"><ele>3641.464</ele><time>2025-02-03T07:42:38.999Z</time></trkpt><trkpt lat="28.013650" lon="85.568889"><ele>3638.110</ele><time>2025-02-03T07:42:43.999Z</time></trkpt><trkpt lat="28.013606" lon="85.568911"><ele>3634.709</ele><time>2025-02-03T07:42:47.999Z</time></trkpt><trkpt lat="28.013574" lon="85.568948"><ele>3632.756</ele><time>2025-02-03T07:43:24.999Z</time></trkpt><trkpt lat="28.013554" lon="85.568995"><ele>3631.814</ele><time>2025-02-03T07:43:30.999Z</time></trkpt><trkpt lat="28.013551" lon="85.569049"><ele>3632.554</ele><time>2025-02-03T07:43:34.999Z</time></trkpt><trkpt lat="28.013529" lon="85.569097"><ele>3631.526</ele><time>2025-02-03T07:43:39.999Z</time></trkpt><trkpt lat="28.013485" lon="85.569123"><ele>3628.237</ele><time>2025-02-03T07:43:46.999Z</time></trkpt><trkpt lat="28.013485" lon="85.569175"><ele>3628.992</ele><time>2025-02-03T07:43:52.999Z</time></trkpt><trkpt lat="28.013491" lon="85.569229"><ele>3629.069</ele><time>2025-02-03T07:43:57.999Z</time></trkpt><trkpt lat="28.013479" lon="85.569283"><ele>3627.778</ele><time>2025-02-03T07:44:02.999Z</time></trkpt><trkpt lat="28.013452" lon="85.569331"><ele>3625.393</ele><time>2025-02-03T07:44:08.999Z</time></trkpt><trkpt lat="28.013426" lon="85.569375"><ele>3623.038</ele><time>2025-02-03T07:44:19.999Z</time></trkpt><trkpt lat="28.013399" lon="85.569420"><ele>3620.770</ele><time>2025-02-03T07:44:30Z</time></trkpt><trkpt lat="28.013403" lon="85.569475"><ele>3620.917</ele><time>2025-02-03T07:44:40Z</time></trkpt><trkpt lat="28.013409" lon="85.569526"><ele>3621.109</ele><time>2025-02-03T07:44:47Z</time></trkpt><trkpt lat="28.013406" lon="85.569594"><ele>3620.765</ele><time>2025-02-03T07:45:01Z</time></trkpt><trkpt lat="28.013417" lon="85.569644"><ele>3621.213</ele><time>2025-02-03T07:45:25Z</time></trkpt><trkpt lat="28.013425" lon="85.569694"><ele>3621.653</ele><time>2025-02-03T07:45:31Z</time></trkpt><trkpt lat="28.013379" lon="85.569703"><ele>3618.485</ele><time>2025-02-03T07:45:39Z</time></trkpt><trkpt lat="28.013351" lon="85.569663"><ele>3616.686</ele><time>2025-02-03T07:45:49Z</time></trkpt><trkpt lat="28.013313" lon="85.569635"><ele>3614.251</ele><time>2025-02-03T07:45:56Z</time></trkpt><trkpt lat="28.013278" lon="85.569599"><ele>3612.268</ele><time>2025-02-03T07:46:06Z</time></trkpt><trkpt lat="28.013248" lon="85.569558"><ele>3610.317</ele><time>2025-02-03T07:46:18Z</time></trkpt><trkpt lat="28.013213" lon="85.569519"><ele>3608.072</ele><time>2025-02-03T07:46:26Z</time></trkpt><trkpt lat="28.013185" lon="85.569562"><ele>3606.451</ele><time>2025-02-03T07:46:40.001Z</time></trkpt><trkpt lat="28.013157" lon="85.569611"><ele>3605.001</ele><time>2025-02-03T07:46:47.001Z</time></trkpt><trkpt lat="28.013173" lon="85.569661"><ele>3606.211</ele><time>2025-02-03T07:46:54.001Z</time></trkpt><trkpt lat="28.013176" lon="85.569720"><ele>3606.609</ele><time>2025-02-03T07:47:04.001Z</time></trkpt><trkpt lat="28.013187" lon="85.569777"><ele>3607.537</ele><time>2025-02-03T07:47:11.001Z</time></trkpt><trkpt lat="28.013148" lon="85.569812"><ele>3605.635</ele><time>2025-02-03T07:47:26.001Z</time></trkpt><trkpt lat="28.013160" lon="85.569863"><ele>3606.525</ele><time>2025-02-03T07:47:35.001Z</time></trkpt><trkpt lat="28.013112" lon="85.569864"><ele>3604.267</ele><time>2025-02-03T07:47:48.001Z</time></trkpt><trkpt lat="28.013101" lon="85.569917"><ele>3604.068</ele><time>2025-02-03T07:47:59.001Z</time></trkpt><trkpt lat="28.013088" lon="85.569967"><ele>3603.883</ele><time>2025-02-03T07:48:04.001Z</time></trkpt><trkpt lat="28.013113" lon="85.570017"><ele>3604.870</ele><time>2025-02-03T07:48:13.001Z</time></trkpt><trkpt lat="28.013067" lon="85.570035"><ele>3602.479</ele><time>2025-02-03T07:48:20.001Z</time></trkpt><trkpt lat="28.013024" lon="85.570021"><ele>3600.894</ele><time>2025-02-03T07:48:29.001Z</time></trkpt><trkpt lat="28.013014" lon="85.570071"><ele>3599.389</ele><time>2025-02-03T07:48:38.002Z</time></trkpt><trkpt lat="28.012964" lon="85.570083"><ele>3596.906</ele><time>2025-02-03T07:48:50.002Z</time></trkpt><trkpt lat="28.012918" lon="85.570084"><ele>3594.926</ele><time>2025-02-03T07:49:03.002Z</time></trkpt><trkpt lat="28.012909" lon="85.570136"><ele>3593.509</ele><time>2025-02-03T07:49:09.002Z</time></trkpt><trkpt lat="28.012864" lon="85.570121"><ele>3591.950</ele><time>2025-02-03T07:49:22.002Z</time></trkpt><trkpt lat="28.012837" lon="85.570167"><ele>3589.948</ele><time>2025-02-03T07:49:27.002Z</time></trkpt><trkpt lat="28.012821" lon="85.570215"><ele>3588.478</ele><time>2025-02-03T07:49:33.002Z</time></trkpt><trkpt lat="28.012788" lon="85.570174"><ele>3587.870</ele><time>2025-02-03T07:49:48.002Z</time></trkpt><trkpt lat="28.012749" lon="85.570145"><ele>3586.721</ele><time>2025-02-03T07:49:55.002Z</time></trkpt><trkpt lat="28.012709" lon="85.570118"><ele>3585.596</ele><time>2025-02-03T07:50:02.002Z</time></trkpt><trkpt lat="28.012650" lon="85.570124"><ele>3582.963</ele><time>2025-02-03T07:50:18.002Z</time></trkpt><trkpt lat="28.012595" lon="85.570129"><ele>3580.692</ele><time>2025-02-03T07:50:23.002Z</time></trkpt><trkpt lat="28.012547" lon="85.570165"><ele>3578.127</ele><time>2025-02-03T07:50:27.002Z</time></trkpt><trkpt lat="28.012502" lon="85.570182"><ele>3576.184</ele><time>2025-02-03T07:50:53.003Z</time></trkpt><trkpt lat="28.012461" lon="85.570148"><ele>3573.807</ele><time>2025-02-03T07:51:08.003Z</time></trkpt><trkpt lat="28.012451" lon="85.570095"><ele>3573.717</ele><time>2025-02-03T07:51:15.003Z</time></trkpt><trkpt lat="28.012405" lon="85.570066"><ele>3570.909</ele><time>2025-02-03T07:51:23.003Z</time></trkpt><trkpt lat="28.012351" lon="85.570091"><ele>3567.070</ele><time>2025-02-03T07:51:31.003Z</time></trkpt><trkpt lat="28.012308" lon="85.570110"><ele>3564.098</ele><time>2025-02-03T07:51:35.003Z</time></trkpt><trkpt lat="28.012265" lon="85.570141"><ele>3560.818</ele><time>2025-02-03T07:51:44.003Z</time></trkpt><trkpt lat="28.012220" lon="85.570129"><ele>3557.970</ele><time>2025-02-03T07:51:50.003Z</time></trkpt><trkpt lat="28.012187" lon="85.570094"><ele>3556.011</ele><time>2025-02-03T07:51:56.003Z</time></trkpt><trkpt lat="28.012137" lon="85.570098"><ele>3552.686</ele><time>2025-02-03T07:52:00.003Z</time></trkpt><trkpt lat="28.012092" lon="85.570081"><ele>3549.693</ele><time>2025-02-03T07:52:04.003Z</time></trkpt><trkpt lat="28.012081" lon="85.570029"><ele>3549.242</ele><time>2025-02-03T07:52:16.003Z</time></trkpt><trkpt lat="28.012086" lon="85.569971"><ele>3548.977</ele><time>2025-02-03T07:52:23.003Z</time></trkpt><trkpt lat="28.012054" lon="85.569927"><ele>3545.561</ele><time>2025-02-03T07:52:34.003Z</time></trkpt><trkpt lat="28.012016" lon="85.569897"><ele>3542.221</ele><time>2025-02-03T07:52:44.003Z</time></trkpt><trkpt lat="28.012039" lon="85.569835"><ele>3542.113</ele><time>2025-02-03T07:52:51.004Z</time></trkpt><trkpt lat="28.011991" lon="85.569824"><ele>3538.609</ele><time>2025-02-03T07:53:16.004Z</time></trkpt><trkpt lat="28.011983" lon="85.569771"><ele>3536.718</ele><time>2025-02-03T07:53:21.004Z</time></trkpt><trkpt lat="28.011974" lon="85.569719"><ele>3534.746</ele><time>2025-02-03T07:53:35.004Z</time></trkpt><trkpt lat="28.011974" lon="85.569650"><ele>3533.076</ele><time>2025-02-03T07:53:46.004Z</time></trkpt><trkpt lat="28.011972" lon="85.569599"><ele>3531.558</ele><time>2025-02-03T07:54:02.004Z</time></trkpt><trkpt lat="28.012006" lon="85.569562"><ele>3532.799</ele><time>2025-02-03T07:54:10.004Z</time></trkpt><trkpt lat="28.012002" lon="85.569507"><ele>3531.034</ele><time>2025-02-03T07:54:20.004Z</time></trkpt><trkpt lat="28.012012" lon="85.569457"><ele>3530.451</ele><time>2025-02-03T07:54:28.004Z</time></trkpt><trkpt lat="28.011991" lon="85.569408"><ele>3527.810</ele><time>2025-02-03T07:54:34.004Z</time></trkpt><trkpt lat="28.011975" lon="85.569357"><ele>3525.495</ele><time>2025-02-03T07:54:42.004Z</time></trkpt><trkpt lat="28.011962" lon="85.569305"><ele>3523.332</ele><time>2025-02-03T07:54:53.005Z</time></trkpt><trkpt lat="28.011966" lon="85.569254"><ele>3522.292</ele><time>2025-02-03T07:54:58.005Z</time></trkpt><trkpt lat="28.011935" lon="85.569291"><ele>3521.311</ele><time>2025-02-03T07:55:09.005Z</time></trkpt><trkpt lat="28.011889" lon="85.569312"><ele>3519.009</ele><time>2025-02-03T07:55:24.005Z</time></trkpt><trkpt lat="28.011858" lon="85.569272"><ele>3516.175</ele><time>2025-02-03T07:55:35.005Z</time></trkpt><trkpt lat="28.011854" lon="85.569219"><ele>3514.583</ele><time>2025-02-03T07:55:40.005Z</time></trkpt><trkpt lat="28.011852" lon="85.569168"><ele>3513.293</ele><time>2025-02-03T07:55:45.005Z</time></trkpt><trkpt lat="28.011841" lon="85.569117"><ele>3510.775</ele><time>2025-02-03T07:55:53.005Z</time></trkpt><trkpt lat="28.011811" lon="85.569064"><ele>3507.036</ele><time>2025-02-03T07:56:03.005Z</time></trkpt><trkpt lat="28.011786" lon="85.569020"><ele>3503.981</ele><time>2025-02-03T07:56:29.005Z</time></trkpt><trkpt lat="28.011731" lon="85.568911"><ele>3496.418</ele><time>2025-02-03T08:19:18.005Z</time></trkpt><trkpt lat="28.011701" lon="85.568958"><ele>3496.277</ele><time>2025-02-03T08:19:29.005Z</time></trkpt><trkpt lat="28.011718" lon="85.568904"><ele>3495.392</ele><time>2025-02-03T08:19:37.005Z</time></trkpt><trkpt lat="28.011678" lon="85.568875"><ele>3491.536</ele><time>2025-02-03T08:19:48.005Z</time></trkpt><trkpt lat="28.011678" lon="85.568812"><ele>3489.117</ele><time>2025-02-03T08:19:57.005Z</time></trkpt><trkpt lat="28.011635" lon="85.568829"><ele>3487.018</ele><time>2025-02-03T08:20:14.006Z</time></trkpt><trkpt lat="28.011588" lon="85.568818"><ele>3483.609</ele><time>2025-02-03T08:20:28.006Z</time></trkpt><trkpt lat="28.011580" lon="85.568766"><ele>3481.135</ele><time>2025-02-03T08:20:37.006Z</time></trkpt><trkpt lat="28.011535" lon="85.568750"><ele>3477.563</ele><time>2025-02-03T08:20:58.006Z</time></trkpt><trkpt lat="28.011532" lon="85.568699"><ele>3475.413</ele><time>2025-02-03T08:21:14.006Z</time></trkpt><trkpt lat="28.011477" lon="85.568678"><ele>3471.025</ele><time>2025-02-03T08:21:31.006Z</time></trkpt><trkpt lat="28.011435" lon="85.568724"><ele>3470.146</ele><time>2025-02-03T08:21:42.006Z</time></trkpt><trkpt lat="28.011432" lon="85.568777"><ele>3472.051</ele><time>2025-02-03T08:21:47.006Z</time></trkpt><trkpt lat="28.011411" lon="85.568826"><ele>3472.698</ele><time>2025-02-03T08:21:54.006Z</time></trkpt><trkpt lat="28.011380" lon="85.568871"><ele>3472.437</ele><time>2025-02-03T08:22:00.006Z</time></trkpt><trkpt lat="28.011330" lon="85.568880"><ele>3469.662</ele><time>2025-02-03T08:22:13.007Z</time></trkpt><trkpt lat="28.011352" lon="85.568836"><ele>3469.228</ele><time>2025-02-03T08:22:29.007Z</time></trkpt><trkpt lat="28.011309" lon="85.568819"><ele>3465.889</ele><time>2025-02-03T08:22:41.007Z</time></trkpt><trkpt lat="28.011292" lon="85.568769"><ele>3462.717</ele><time>2025-02-03T08:23:29.007Z</time></trkpt><trkpt lat="28.011296" lon="85.568715"><ele>3460.809</ele><time>2025-02-03T08:23:38.007Z</time></trkpt><trkpt lat="28.011248" lon="85.568698"><ele>3457.024</ele><time>2025-02-03T08:23:55.007Z</time></trkpt><trkpt lat="28.011235" lon="85.568643"><ele>3454.092</ele><time>2025-02-03T08:24:09.007Z</time></trkpt><trkpt lat="28.011231" lon="85.568590"><ele>3451.652</ele><time>2025-02-03T08:24:19.008Z</time></trkpt><trkpt lat="28.011190" lon="85.568617"><ele>3450.034</ele><time>2025-02-03T08:24:23.008Z</time></trkpt><trkpt lat="28.011157" lon="85.568579"><ele>3446.385</ele><time>2025-02-03T08:24:43.008Z</time></trkpt><trkpt lat="28.011109" lon="85.568559"><ele>3442.440</ele><time>2025-02-03T08:25:05.008Z</time></trkpt><trkpt lat="28.011072" lon="85.568526"><ele>3438.637</ele><time>2025-02-03T08:25:39.008Z</time></trkpt><trkpt lat="28.011049" lon="85.568473"><ele>3435.016</ele><time>2025-02-03T08:25:54.008Z</time></trkpt><trkpt lat="28.011023" lon="85.568516"><ele>3435.041</ele><time>2025-02-03T08:26:14.008Z</time></trkpt><trkpt lat="28.010983" lon="85.568551"><ele>3433.991</ele><time>2025-02-03T08:26:31.009Z</time></trkpt><trkpt lat="28.010969" lon="85.568500"><ele>3430.981</ele><time>2025-02-03T08:26:45.009Z</time></trkpt><trkpt lat="28.010943" lon="85.568543"><ele>3430.919</ele><time>2025-02-03T08:26:54.009Z</time></trkpt><trkpt lat="28.010897" lon="85.568549"><ele>3428.209</ele><time>2025-02-03T08:27:00.009Z</time></trkpt><trkpt lat="28.010932" lon="85.568517"><ele>3429.131</ele><time>2025-02-03T08:27:09.009Z</time></trkpt><trkpt lat="28.010922" lon="85.568464"><ele>3426.379</ele><time>2025-02-03T08:27:20.009Z</time></trkpt><trkpt lat="28.010872" lon="85.568493"><ele>3424.249</ele><time>2025-02-03T08:27:34.009Z</time></trkpt><trkpt lat="28.010854" lon="85.568544"><ele>3425.261</ele><time>2025-02-03T08:27:42.009Z</time></trkpt><trkpt lat="28.010858" lon="85.568595"><ele>3427.632</ele><time>2025-02-03T08:27:50.009Z</time></trkpt><trkpt lat="28.010832" lon="85.568641"><ele>3427.927</ele><time>2025-02-03T08:28:05.009Z</time></trkpt><trkpt lat="28.010795" lon="85.568602"><ele>3424.624</ele><time>2025-02-03T08:28:39.010Z</time></trkpt><trkpt lat="28.010751" lon="85.568618"><ele>3423.233</ele><time>2025-02-03T08:29:19.010Z</time></trkpt><trkpt lat="28.010711" lon="85.568583"><ele>3420.028</ele><time>2025-02-03T08:29:33.010Z</time></trkpt><trkpt lat="28.010714" lon="85.568530"><ele>3418.077</ele><time>2025-02-03T08:29:41.010Z</time></trkpt><trkpt lat="28.010667" lon="85.568534"><ele>3416.161</ele><time>2025-02-03T08:29:52.010Z</time></trkpt><trkpt lat="28.010638" lon="85.568493"><ele>3413.127</ele><time>2025-02-03T08:30:02.010Z</time></trkpt><trkpt lat="28.010598" lon="85.568468"><ele>3410.409</ele><time>2025-02-03T08:30:10.010Z</time></trkpt><trkpt lat="28.010612" lon="85.568413"><ele>3408.839</ele><time>2025-02-03T08:30:17.010Z</time></trkpt><trkpt lat="28.010567" lon="85.568408"><ele>3406.727</ele><time>2025-02-03T08:30:29.011Z</time></trkpt><trkpt lat="28.010534" lon="85.568444"><ele>3406.727</ele><time>2025-02-03T08:37:58.011Z</time></trkpt><trkpt lat="28.010509" lon="85.568495"><ele>3407.699</ele><time>2025-02-03T08:38:53.011Z</time></trkpt><trkpt lat="28.010477" lon="85.568454"><ele>3404.630</ele><time>2025-02-03T08:40:19.010Z</time></trkpt><trkpt lat="28.010426" lon="85.568457"><ele>3402.545</ele><time>2025-02-03T08:40:32.010Z</time></trkpt><trkpt lat="28.010387" lon="85.568419"><ele>3399.452</ele><time>2025-02-03T08:40:49.010Z</time></trkpt><trkpt lat="28.010345" lon="85.568439"><ele>3398.331</ele><time>2025-02-03T08:40:54.010Z</time></trkpt><trkpt lat="28.010336" lon="85.568493"><ele>3399.986</ele><time>2025-02-03T08:41:01.011Z</time></trkpt><trkpt lat="28.010289" lon="85.568475"><ele>3397.265</ele><time>2025-02-03T08:41:29.011Z</time></trkpt><trkpt lat="28.010266" lon="85.568420"><ele>3394.268</ele><time>2025-02-03T08:41:44.011Z</time></trkpt><trkpt lat="28.010252" lon="85.568367"><ele>3391.814</ele><time>2025-02-03T08:42:07.011Z</time></trkpt><trkpt lat="28.010225" lon="85.568321"><ele>3388.909</ele><time>2025-02-03T08:42:20.011Z</time></trkpt><trkpt lat="28.010177" lon="85.568330"><ele>3387.328</ele><time>2025-02-03T08:42:27.011Z</time></trkpt><trkpt lat="28.010152" lon="85.568288"><ele>3384.566</ele><time>2025-02-03T08:42:38.011Z</time></trkpt><trkpt lat="28.010105" lon="85.568285"><ele>3382.486</ele><time>2025-02-03T08:42:49.011Z</time></trkpt><trkpt lat="28.010060" lon="85.568266"><ele>3379.718</ele><time>2025-02-03T08:43:00.011Z</time></trkpt><trkpt lat="28.010017" lon="85.568240"><ele>3376.759</ele><time>2025-02-03T08:43:22.012Z</time></trkpt><trkpt lat="28.009973" lon="85.568250"><ele>3375.874</ele><time>2025-02-03T08:43:34.012Z</time></trkpt><trkpt lat="28.009947" lon="85.568203"><ele>3373.351</ele><time>2025-02-03T08:43:46.012Z</time></trkpt><trkpt lat="28.009905" lon="85.568176"><ele>3371.210</ele><time>2025-02-03T08:43:55.012Z</time></trkpt><trkpt lat="28.009874" lon="85.568216"><ele>3372.315</ele><time>2025-02-03T08:44:02.012Z</time></trkpt><trkpt lat="28.009825" lon="85.568227"><ele>3371.799</ele><time>2025-02-03T08:44:10.012Z</time></trkpt><trkpt lat="28.009777" lon="85.568237"><ele>3371.107</ele><time>2025-02-03T08:44:19.012Z</time></trkpt><trkpt lat="28.009740" lon="85.568278"><ele>3372.127</ele><time>2025-02-03T08:44:34.012Z</time></trkpt><trkpt lat="28.009696" lon="85.568261"><ele>3370.409</ele><time>2025-02-03T08:44:44.012Z</time></trkpt><trkpt lat="28.009664" lon="85.568221"><ele>3368.181</ele><time>2025-02-03T08:44:55.012Z</time></trkpt><trkpt lat="28.009614" lon="85.568211"><ele>3366.719</ele><time>2025-02-03T08:45:01.012Z</time></trkpt><trkpt lat="28.009597" lon="85.568259"><ele>3368.389</ele><time>2025-02-03T08:45:38.013Z</time></trkpt><trkpt lat="28.009547" lon="85.568246"><ele>3366.741</ele><time>2025-02-03T08:45:53.013Z</time></trkpt><trkpt lat="28.009498" lon="85.568258"><ele>3366.122</ele><time>2025-02-03T08:45:59.013Z</time></trkpt><trkpt lat="28.009451" lon="85.568266"><ele>3365.477</ele><time>2025-02-03T08:46:05.013Z</time></trkpt><trkpt lat="28.009404" lon="85.568274"><ele>3364.854</ele><time>2025-02-03T08:46:09.013Z</time></trkpt><trkpt lat="28.009365" lon="85.568313"><ele>3365.573</ele><time>2025-02-03T08:46:16.013Z</time></trkpt><trkpt lat="28.009321" lon="85.568300"><ele>3364.068</ele><time>2025-02-03T08:46:20.013Z</time></trkpt><trkpt lat="28.009273" lon="85.568311"><ele>3363.474</ele><time>2025-02-03T08:46:27.013Z</time></trkpt><trkpt lat="28.009237" lon="85.568347"><ele>3363.756</ele><time>2025-02-03T08:46:41.013Z</time></trkpt><trkpt lat="28.009210" lon="85.568400"><ele>3363.621</ele><time>2025-02-03T08:46:56.013Z</time></trkpt><trkpt lat="28.009163" lon="85.568413"><ele>3362.609</ele><time>2025-02-03T08:47:06.013Z</time></trkpt><trkpt lat="28.009116" lon="85.568413"><ele>3362.069</ele><time>2025-02-03T08:47:15.014Z</time></trkpt><trkpt lat="28.009168" lon="85.568401"><ele>3362.667</ele><time>2025-02-03T08:48:10.014Z</time></trkpt><trkpt lat="28.009204" lon="85.568360"><ele>3363.177</ele><time>2025-02-03T08:48:20.014Z</time></trkpt><trkpt lat="28.009245" lon="85.568333"><ele>3363.769</ele><time>2025-02-03T08:48:27.014Z</time></trkpt><trkpt lat="28.009291" lon="85.568325"><ele>3364.460</ele><time>2025-02-03T08:48:34.014Z</time></trkpt><trkpt lat="28.009333" lon="85.568297"><ele>3364.265</ele><time>2025-02-03T08:48:40.014Z</time></trkpt><trkpt lat="28.009379" lon="85.568256"><ele>3363.522</ele><time>2025-02-03T08:48:46.014Z</time></trkpt><trkpt lat="28.009410" lon="85.568296"><ele>3365.851</ele><time>2025-02-03T08:48:51.014Z</time></trkpt><trkpt lat="28.009461" lon="85.568289"><ele>3366.646</ele><time>2025-02-03T08:48:57.014Z</time></trkpt><trkpt lat="28.009518" lon="85.568298"><ele>3368.259</ele><time>2025-02-03T08:49:03.014Z</time></trkpt><trkpt lat="28.009547" lon="85.568251"><ele>3366.903</ele><time>2025-02-03T08:49:07.014Z</time></trkpt><trkpt lat="28.009508" lon="85.568219"><ele>3364.823</ele><time>2025-02-03T08:49:16.014Z</time></trkpt><trkpt lat="28.009463" lon="85.568205"><ele>3363.309</ele><time>2025-02-03T08:49:23.015Z</time></trkpt><trkpt lat="28.009425" lon="85.568167"><ele>3360.957</ele><time>2025-02-03T08:49:32.015Z</time></trkpt><trkpt lat="28.009386" lon="85.568139"><ele>3359.025</ele><time>2025-02-03T08:49:38.015Z</time></trkpt><trkpt lat="28.009353" lon="85.568103"><ele>3356.925</ele><time>2025-02-03T08:49:43.015Z</time></trkpt><trkpt lat="28.009307" lon="85.568114"><ele>3356.497</ele><time>2025-02-03T08:49:58.015Z</time></trkpt><trkpt lat="28.009262" lon="85.568113"><ele>3355.578</ele><time>2025-02-03T08:50:09.015Z</time></trkpt><trkpt lat="28.009219" lon="85.568098"><ele>3354.043</ele><time>2025-02-03T08:50:18.015Z</time></trkpt><trkpt lat="28.009177" lon="85.568067"><ele>3352.080</ele><time>2025-02-03T08:50:34.015Z</time></trkpt><trkpt lat="28.009148" lon="85.568027"><ele>3350.069</ele><time>2025-02-03T08:50:43.015Z</time></trkpt><trkpt lat="28.009132" lon="85.567978"><ele>3347.984</ele><time>2025-02-03T08:50:59.015Z</time></trkpt><trkpt lat="28.009086" lon="85.567975"><ele>3347.199</ele><time>2025-02-03T08:51:09.015Z</time></trkpt><trkpt lat="28.009041" lon="85.567971"><ele>3346.407</ele><time>2025-02-03T08:51:20.015Z</time></trkpt><trkpt lat="28.008996" lon="85.567956"><ele>3345.227</ele><time>2025-02-03T08:51:28.016Z</time></trkpt><trkpt lat="28.008956" lon="85.567929"><ele>3343.609</ele><time>2025-02-03T08:51:40.016Z</time></trkpt><trkpt lat="28.008924" lon="85.567881"><ele>3341.221</ele><time>2025-02-03T08:51:50.016Z</time></trkpt><trkpt lat="28.008876" lon="85.567867"><ele>3340.069</ele><time>2025-02-03T08:52:00.016Z</time></trkpt><trkpt lat="28.008814" lon="85.567862"><ele>3339.049</ele><time>2025-02-03T08:52:03.016Z</time></trkpt><trkpt lat="28.008765" lon="85.567867"><ele>3338.561</ele><time>2025-02-03T08:52:07.016Z</time></trkpt><trkpt lat="28.008719" lon="85.567899"><ele>3339.122</ele><time>2025-02-03T08:52:10.016Z</time></trkpt><trkpt lat="28.008674" lon="85.567913"><ele>3339.157</ele><time>2025-02-03T08:52:14.016Z</time></trkpt><trkpt lat="28.008634" lon="85.567939"><ele>3339.644</ele><time>2025-02-03T08:52:18.016Z</time></trkpt><trkpt lat="28.008593" lon="85.567969"><ele>3340.263</ele><time>2025-02-03T08:52:23.016Z</time></trkpt><trkpt lat="28.008567" lon="85.568013"><ele>3341.748</ele><time>2025-02-03T08:52:28.016Z</time></trkpt><trkpt lat="28.008522" lon="85.568035"><ele>3342.052</ele><time>2025-02-03T08:52:43.016Z</time></trkpt><trkpt lat="28.008477" lon="85.568060"><ele>3342.453</ele><time>2025-02-03T08:52:47.016Z</time></trkpt><trkpt lat="28.008426" lon="85.568062"><ele>3341.808</ele><time>2025-02-03T08:52:51.016Z</time></trkpt><trkpt lat="28.008370" lon="85.568068"><ele>3341.309</ele><time>2025-02-03T08:52:56.016Z</time></trkpt><trkpt lat="28.008322" lon="85.568077"><ele>3340.827</ele><time>2025-02-03T08:53:01.016Z</time></trkpt><trkpt lat="28.008274" lon="85.568082"><ele>3339.315</ele><time>2025-02-03T08:53:06.016Z</time></trkpt><trkpt lat="28.008233" lon="85.568110"><ele>3338.925</ele><time>2025-02-03T08:53:14.016Z</time></trkpt><trkpt lat="28.008189" lon="85.568097"><ele>3336.717</ele><time>2025-02-03T08:53:19.016Z</time></trkpt><trkpt lat="28.008146" lon="85.568120"><ele>3336.038</ele><time>2025-02-03T08:53:26.016Z</time></trkpt><trkpt lat="28.008102" lon="85.568097"><ele>3333.593</ele><time>2025-02-03T08:53:35.017Z</time></trkpt><trkpt lat="28.008054" lon="85.568103"><ele>3332.030</ele><time>2025-02-03T08:53:41.017Z</time></trkpt><trkpt lat="28.008009" lon="85.568090"><ele>3329.939</ele><time>2025-02-03T08:53:50.017Z</time></trkpt><trkpt lat="28.007956" lon="85.568065"><ele>3327.254</ele><time>2025-02-03T08:54:31.017Z</time></trkpt><trkpt lat="28.007925" lon="85.568027"><ele>3325.027</ele><time>2025-02-03T08:54:41.017Z</time></trkpt><trkpt lat="28.007875" lon="85.567989"><ele>3322.268</ele><time>2025-02-03T08:54:48.017Z</time></trkpt><trkpt lat="28.007823" lon="85.567982"><ele>3320.314</ele><time>2025-02-03T08:54:56.017Z</time></trkpt><trkpt lat="28.007809" lon="85.567929"><ele>3318.509</ele><time>2025-02-03T08:55:02.017Z</time></trkpt><trkpt lat="28.007753" lon="85.567955"><ele>3317.384</ele><time>2025-02-03T08:55:08.017Z</time></trkpt><trkpt lat="28.007706" lon="85.567973"><ele>3316.282</ele><time>2025-02-03T08:55:15.017Z</time></trkpt><trkpt lat="28.007663" lon="85.567944"><ele>3314.232</ele><time>2025-02-03T08:55:20.017Z</time></trkpt><trkpt lat="28.007614" lon="85.567928"><ele>3312.324</ele><time>2025-02-03T08:55:29.017Z</time></trkpt><trkpt lat="28.007570" lon="85.567894"><ele>3310.335</ele><time>2025-02-03T08:55:34.017Z</time></trkpt><trkpt lat="28.007520" lon="85.567893"><ele>3308.780</ele><time>2025-02-03T08:55:38.017Z</time></trkpt><trkpt lat="28.007466" lon="85.567893"><ele>3306.987</ele><time>2025-02-03T08:55:42.018Z</time></trkpt><trkpt lat="28.007420" lon="85.567877"><ele>3305.016</ele><time>2025-02-03T08:55:46.018Z</time></trkpt><trkpt lat="28.007384" lon="85.567840"><ele>3303.361</ele><time>2025-02-03T08:55:51.018Z</time></trkpt><trkpt lat="28.007335" lon="85.567818"><ele>3301.526</ele><time>2025-02-03T08:56:00.018Z</time></trkpt><trkpt lat="28.007289" lon="85.567804"><ele>3299.947</ele><time>2025-02-03T08:56:11.018Z</time></trkpt><trkpt lat="28.007242" lon="85.567786"><ele>3298.211</ele><time>2025-02-03T08:56:22.018Z</time></trkpt><trkpt lat="28.007199" lon="85.567801"><ele>3296.909</ele><time>2025-02-03T08:56:28.018Z</time></trkpt><trkpt lat="28.007159" lon="85.567770"><ele>3295.574</ele><time>2025-02-03T08:56:35.018Z</time></trkpt><trkpt lat="28.007115" lon="85.567757"><ele>3294.212</ele><time>2025-02-03T08:56:44.018Z</time></trkpt><trkpt lat="28.007068" lon="85.567769"><ele>3292.762</ele><time>2025-02-03T08:56:54.018Z</time></trkpt><trkpt lat="28.007017" lon="85.567760"><ele>3291.184</ele><time>2025-02-03T08:57:03.018Z</time></trkpt><trkpt lat="28.006974" lon="85.567736"><ele>3289.975</ele><time>2025-02-03T08:57:10.018Z</time></trkpt><trkpt lat="28.006928" lon="85.567725"><ele>3288.770</ele><time>2025-02-03T08:57:22.018Z</time></trkpt><trkpt lat="28.006889" lon="85.567692"><ele>3287.867</ele><time>2025-02-03T08:57:32.018Z</time></trkpt><trkpt lat="28.006854" lon="85.567651"><ele>3287.236</ele><time>2025-02-03T08:57:39.018Z</time></trkpt><trkpt lat="28.006814" lon="85.567675"><ele>3285.931</ele><time>2025-02-03T08:57:43.018Z</time></trkpt><trkpt lat="28.006770" lon="85.567632"><ele>3285.377</ele><time>2025-02-03T08:57:49.019Z</time></trkpt><trkpt lat="28.006723" lon="85.567624"><ele>3284.261</ele><time>2025-02-03T08:57:55.019Z</time></trkpt><trkpt lat="28.006669" lon="85.567631"><ele>3282.727</ele><time>2025-02-03T08:58:02.019Z</time></trkpt><trkpt lat="28.006623" lon="85.567643"><ele>3281.109</ele><time>2025-02-03T08:58:13.019Z</time></trkpt><trkpt lat="28.006589" lon="85.567600"><ele>3280.939</ele><time>2025-02-03T08:58:20.019Z</time></trkpt><trkpt lat="28.006550" lon="85.567574"><ele>3280.287</ele><time>2025-02-03T08:58:37.019Z</time></trkpt><trkpt lat="28.006504" lon="85.567561"><ele>3279.147</ele><time>2025-02-03T08:58:51.019Z</time></trkpt><trkpt lat="28.006479" lon="85.567517"><ele>3279.319</ele><time>2025-02-03T08:59:03.019Z</time></trkpt><trkpt lat="28.006436" lon="85.567540"><ele>3277.680</ele><time>2025-02-03T08:59:30.019Z</time></trkpt><trkpt lat="28.006420" lon="85.567484"><ele>3277.445</ele><time>2025-02-03T08:59:45.019Z</time></trkpt><trkpt lat="28.006407" lon="85.567435"><ele>3275.722</ele><time>2025-02-03T08:59:52.020Z</time></trkpt><trkpt lat="28.006374" lon="85.567386"><ele>3273.581</ele><time>2025-02-03T08:59:59.020Z</time></trkpt><trkpt lat="28.006329" lon="85.567364"><ele>3271.826</ele><time>2025-02-03T09:00:11.020Z</time></trkpt><trkpt lat="28.006286" lon="85.567382"><ele>3271.131</ele><time>2025-02-03T09:00:16.020Z</time></trkpt><trkpt lat="28.006243" lon="85.567400"><ele>3270.561</ele><time>2025-02-03T09:00:21.020Z</time></trkpt><trkpt lat="28.006198" lon="85.567378"><ele>3268.807</ele><time>2025-02-03T09:00:29.020Z</time></trkpt><trkpt lat="28.006168" lon="85.567332"><ele>3267.109</ele><time>2025-02-03T09:00:34.020Z</time></trkpt><trkpt lat="28.006109" lon="85.567322"><ele>3265.595</ele><time>2025-02-03T09:00:42.020Z</time></trkpt><trkpt lat="28.006062" lon="85.567310"><ele>3264.243</ele><time>2025-02-03T09:00:51.020Z</time></trkpt><trkpt lat="28.006013" lon="85.567290"><ele>3262.843</ele><time>2025-02-03T09:00:58.020Z</time></trkpt><trkpt lat="28.005988" lon="85.567241"><ele>3261.475</ele><time>2025-02-03T09:01:04.020Z</time></trkpt><trkpt lat="28.005940" lon="85.567247"><ele>3260.556</ele><time>2025-02-03T09:01:16.020Z</time></trkpt><trkpt lat="28.005897" lon="85.567207"><ele>3259.161</ele><time>2025-02-03T09:01:22.020Z</time></trkpt><trkpt lat="28.005865" lon="85.567243"><ele>3258.938</ele><time>2025-02-03T09:01:31.020Z</time></trkpt><trkpt lat="28.005819" lon="85.567218"><ele>3257.647</ele><time>2025-02-03T09:01:37.020Z</time></trkpt><trkpt lat="28.005775" lon="85.567193"><ele>3256.122</ele><time>2025-02-03T09:01:43.020Z</time></trkpt><trkpt lat="28.005731" lon="85.567165"><ele>3254.832</ele><time>2025-02-03T09:01:54.020Z</time></trkpt><trkpt lat="28.005687" lon="85.567147"><ele>3253.592</ele><time>2025-02-03T09:02:01.021Z</time></trkpt><trkpt lat="28.005661" lon="85.567105"><ele>3252.611</ele><time>2025-02-03T09:02:14.021Z</time></trkpt><trkpt lat="28.005653" lon="85.567053"><ele>3252.109</ele><time>2025-02-03T09:02:22.021Z</time></trkpt><trkpt lat="28.005606" lon="85.567028"><ele>3250.945</ele><time>2025-02-03T09:02:29.021Z</time></trkpt><trkpt lat="28.005557" lon="85.567031"><ele>3249.933</ele><time>2025-02-03T09:02:36.021Z</time></trkpt><trkpt lat="28.005508" lon="85.567039"><ele>3248.823</ele><time>2025-02-03T09:02:42.021Z</time></trkpt><trkpt lat="28.005462" lon="85.567034"><ele>3247.875</ele><time>2025-02-03T09:02:53.021Z</time></trkpt><trkpt lat="28.005411" lon="85.567047"><ele>3246.656</ele><time>2025-02-03T09:02:58.021Z</time></trkpt><trkpt lat="28.005363" lon="85.567046"><ele>3245.661</ele><time>2025-02-03T09:03:03.021Z</time></trkpt><trkpt lat="28.005314" lon="85.567049"><ele>3244.568</ele><time>2025-02-03T09:03:12.021Z</time></trkpt><trkpt lat="28.005264" lon="85.567050"><ele>3243.327</ele><time>2025-02-03T09:03:17.021Z</time></trkpt><trkpt lat="28.005211" lon="85.567050"><ele>3242.142</ele><time>2025-02-03T09:03:23.021Z</time></trkpt><trkpt lat="28.005163" lon="85.567066"><ele>3240.988</ele><time>2025-02-03T09:03:31.021Z</time></trkpt><trkpt lat="28.005111" lon="85.567057"><ele>3239.824</ele><time>2025-02-03T09:03:36.021Z</time></trkpt><trkpt lat="28.005063" lon="85.567055"><ele>3238.826</ele><time>2025-02-03T09:03:42.021Z</time></trkpt><trkpt lat="28.005022" lon="85.567026"><ele>3238.209</ele><time>2025-02-03T09:03:49.021Z</time></trkpt><trkpt lat="28.004981" lon="85.567002"><ele>3237.340</ele><time>2025-02-03T09:03:53.021Z</time></trkpt><trkpt lat="28.004945" lon="85.566962"><ele>3236.538</ele><time>2025-02-03T09:04:00.021Z</time></trkpt><trkpt lat="28.004899" lon="85.566960"><ele>3234.838</ele><time>2025-02-03T09:04:07.022Z</time></trkpt><trkpt lat="28.004854" lon="85.566963"><ele>3233.290</ele><time>2025-02-03T09:04:14.022Z</time></trkpt><trkpt lat="28.004812" lon="85.566922"><ele>3232.271</ele><time>2025-02-03T09:04:20.022Z</time></trkpt><trkpt lat="28.004760" lon="85.566916"><ele>3230.566</ele><time>2025-02-03T09:04:25.022Z</time></trkpt><trkpt lat="28.004712" lon="85.566924"><ele>3228.613</ele><time>2025-02-03T09:04:30.022Z</time></trkpt><trkpt lat="28.004668" lon="85.566937"><ele>3226.882</ele><time>2025-02-03T09:04:34.022Z</time></trkpt><trkpt lat="28.004625" lon="85.566904"><ele>3225.847</ele><time>2025-02-03T09:04:40.022Z</time></trkpt><trkpt lat="28.004575" lon="85.566928"><ele>3223.774</ele><time>2025-02-03T09:04:45.022Z</time></trkpt><trkpt lat="28.004535" lon="85.566898"><ele>3222.856</ele><time>2025-02-03T09:04:49.022Z</time></trkpt><trkpt lat="28.004488" lon="85.566895"><ele>3221.221</ele><time>2025-02-03T09:04:55.022Z</time></trkpt><trkpt lat="28.004436" lon="85.566924"><ele>3218.809</ele><time>2025-02-03T09:05:02.022Z</time></trkpt><trkpt lat="28.004383" lon="85.566926"><ele>3216.899</ele><time>2025-02-03T09:05:11.022Z</time></trkpt><trkpt lat="28.004327" lon="85.566928"><ele>3214.867</ele><time>2025-02-03T09:05:19.022Z</time></trkpt><trkpt lat="28.004287" lon="85.566903"><ele>3213.987</ele><time>2025-02-03T09:05:26.022Z</time></trkpt><trkpt lat="28.004246" lon="85.566876"><ele>3213.049</ele><time>2025-02-03T09:05:31.022Z</time></trkpt><trkpt lat="28.004199" lon="85.566860"><ele>3211.790</ele><time>2025-02-03T09:05:37.022Z</time></trkpt><trkpt lat="28.004157" lon="85.566839"><ele>3210.955</ele><time>2025-02-03T09:05:42.022Z</time></trkpt><trkpt lat="28.004107" lon="85.566827"><ele>3210.442</ele><time>2025-02-03T09:05:49.022Z</time></trkpt><trkpt lat="28.004061" lon="85.566830"><ele>3209.611</ele><time>2025-02-03T09:05:54.022Z</time></trkpt><trkpt lat="28.004016" lon="85.566845"><ele>3208.596</ele><time>2025-02-03T09:06:04.022Z</time></trkpt><trkpt lat="28.003971" lon="85.566819"><ele>3208.343</ele><time>2025-02-03T09:06:13.023Z</time></trkpt><trkpt lat="28.003938" lon="85.566774"><ele>3208.864</ele><time>2025-02-03T09:06:25.023Z</time></trkpt><trkpt lat="28.003887" lon="85.566773"><ele>3208.010</ele><time>2025-02-03T09:06:35.023Z</time></trkpt><trkpt lat="28.003845" lon="85.566753"><ele>3207.709</ele><time>2025-02-03T09:06:42.023Z</time></trkpt><trkpt lat="28.003800" lon="85.566734"><ele>3207.446</ele><time>2025-02-03T09:06:52.023Z</time></trkpt><trkpt lat="28.003752" lon="85.566710"><ele>3207.144</ele><time>2025-02-03T09:07:17.023Z</time></trkpt><trkpt lat="28.003710" lon="85.566682"><ele>3207.034</ele><time>2025-02-03T09:07:37.023Z</time></trkpt><trkpt lat="28.003672" lon="85.566646"><ele>3206.286</ele><time>2025-02-03T09:07:56.023Z</time></trkpt><trkpt lat="28.003628" lon="85.566633"><ele>3205.197</ele><time>2025-02-03T09:08:11.023Z</time></trkpt><trkpt lat="28.003577" lon="85.566605"><ele>3203.572</ele><time>2025-02-03T09:08:19.024Z</time></trkpt><trkpt lat="28.003556" lon="85.566554"><ele>3201.889</ele><time>2025-02-03T09:08:26.024Z</time></trkpt><trkpt lat="28.003512" lon="85.566519"><ele>3200.268</ele><time>2025-02-03T09:08:36.024Z</time></trkpt><trkpt lat="28.003463" lon="85.566525"><ele>3199.513</ele><time>2025-02-03T09:08:42.024Z</time></trkpt><trkpt lat="28.003426" lon="85.566487"><ele>3197.958</ele><time>2025-02-03T09:08:49.024Z</time></trkpt><trkpt lat="28.003388" lon="85.566519"><ele>3198.052</ele><time>2025-02-03T09:08:55.024Z</time></trkpt><trkpt lat="28.003359" lon="85.566465"><ele>3196.117</ele><time>2025-02-03T09:09:02.024Z</time></trkpt><trkpt lat="28.003305" lon="85.566452"><ele>3194.709</ele><time>2025-02-03T09:09:07.024Z</time></trkpt><trkpt lat="28.003249" lon="85.566453"><ele>3193.347</ele><time>2025-02-03T09:09:16.024Z</time></trkpt><trkpt lat="28.003208" lon="85.566422"><ele>3191.575</ele><time>2025-02-03T09:09:21.024Z</time></trkpt><trkpt lat="28.003159" lon="85.566404"><ele>3189.985</ele><time>2025-02-03T09:09:34.024Z</time></trkpt><trkpt lat="28.003117" lon="85.566449"><ele>3190.197</ele><time>2025-02-03T09:09:39.024Z</time></trkpt><trkpt lat="28.003064" lon="85.566470"><ele>3189.398</ele><time>2025-02-03T09:09:45.024Z</time></trkpt><trkpt lat="28.003017" lon="85.566495"><ele>3188.953</ele><time>2025-02-03T09:09:52.024Z</time></trkpt><trkpt lat="28.002975" lon="85.566531"><ele>3188.880</ele><time>2025-02-03T09:09:59.024Z</time></trkpt><trkpt lat="28.002934" lon="85.566561"><ele>3188.689</ele><time>2025-02-03T09:10:06.024Z</time></trkpt><trkpt lat="28.002885" lon="85.566573"><ele>3187.854</ele><time>2025-02-03T09:10:10.024Z</time></trkpt><trkpt lat="28.002836" lon="85.566566"><ele>3186.437</ele><time>2025-02-03T09:10:16.024Z</time></trkpt><trkpt lat="28.002793" lon="85.566584"><ele>3185.949</ele><time>2025-02-03T09:10:24.025Z</time></trkpt><trkpt lat="28.002748" lon="85.566596"><ele>3185.113</ele><time>2025-02-03T09:10:29.025Z</time></trkpt><trkpt lat="28.002695" lon="85.566581"><ele>3183.409</ele><time>2025-02-03T09:10:35.025Z</time></trkpt><trkpt lat="28.002650" lon="85.566565"><ele>3181.995</ele><time>2025-02-03T09:10:40.025Z</time></trkpt><trkpt lat="28.002595" lon="85.566561"><ele>3180.583</ele><time>2025-02-03T09:10:46.025Z</time></trkpt><trkpt lat="28.002554" lon="85.566585"><ele>3180.163</ele><time>2025-02-03T09:10:52.025Z</time></trkpt><trkpt lat="28.002497" lon="85.566574"><ele>3178.575</ele><time>2025-02-03T09:10:57.025Z</time></trkpt><trkpt lat="28.002443" lon="85.566588"><ele>3177.566</ele><time>2025-02-03T09:11:00.025Z</time></trkpt><trkpt lat="28.002390" lon="85.566608"><ele>3176.751</ele><time>2025-02-03T09:11:04.025Z</time></trkpt><trkpt lat="28.002343" lon="85.566605"><ele>3175.488</ele><time>2025-02-03T09:11:09.025Z</time></trkpt><trkpt lat="28.002285" lon="85.566627"><ele>3174.517</ele><time>2025-02-03T09:11:15.025Z</time></trkpt><trkpt lat="28.002239" lon="85.566639"><ele>3173.792</ele><time>2025-02-03T09:11:18.025Z</time></trkpt><trkpt lat="28.002192" lon="85.566657"><ele>3173.031</ele><time>2025-02-03T09:11:22.025Z</time></trkpt><trkpt lat="28.002149" lon="85.566691"><ele>3172.161</ele><time>2025-02-03T09:11:28.025Z</time></trkpt><trkpt lat="28.002114" lon="85.566726"><ele>3171.107</ele><time>2025-02-03T09:11:32.025Z</time></trkpt><trkpt lat="28.002071" lon="85.566751"><ele>3170.109</ele><time>2025-02-03T09:11:38.025Z</time></trkpt><trkpt lat="28.002034" lon="85.566800"><ele>3169.165</ele><time>2025-02-03T09:11:44.025Z</time></trkpt><trkpt lat="28.002001" lon="85.566843"><ele>3168.313</ele><time>2025-02-03T09:11:51.025Z</time></trkpt><trkpt lat="28.001953" lon="85.566843"><ele>3167.393</ele><time>2025-02-03T09:11:57.025Z</time></trkpt><trkpt lat="28.001911" lon="85.566867"><ele>3166.315</ele><time>2025-02-03T09:12:22.025Z</time></trkpt><trkpt lat="28.001868" lon="85.566853"><ele>3165.426</ele><time>2025-02-03T09:12:36.026Z</time></trkpt><trkpt lat="28.001846" lon="85.566904"><ele>3165.031</ele><time>2025-02-03T09:12:45.026Z</time></trkpt><trkpt lat="28.001802" lon="85.566881"><ele>3164.098</ele><time>2025-02-03T09:13:03.026Z</time></trkpt><trkpt lat="28.001757" lon="85.566897"><ele>3163.127</ele><time>2025-02-03T09:13:09.026Z</time></trkpt><trkpt lat="28.001711" lon="85.566909"><ele>3162.132</ele><time>2025-02-03T09:13:19.026Z</time></trkpt><trkpt lat="28.001664" lon="85.566903"><ele>3161.192</ele><time>2025-02-03T09:13:28.026Z</time></trkpt><trkpt lat="28.001631" lon="85.566941"><ele>3161.273</ele><time>2025-02-03T09:13:34.026Z</time></trkpt><trkpt lat="28.001604" lon="85.566992"><ele>3161.320</ele><time>2025-02-03T09:13:44.026Z</time></trkpt><trkpt lat="28.001557" lon="85.566991"><ele>3161.109</ele><time>2025-02-03T09:13:58.026Z</time></trkpt><trkpt lat="28.001511" lon="85.567034"><ele>3161.081</ele><time>2025-02-03T09:14:05.026Z</time></trkpt><trkpt lat="28.001464" lon="85.567033"><ele>3160.859</ele><time>2025-02-03T09:14:23.026Z</time></trkpt><trkpt lat="28.001444" lon="85.567082"><ele>3160.989</ele><time>2025-02-03T09:14:33.027Z</time></trkpt><trkpt lat="28.001399" lon="85.567095"><ele>3160.891</ele><time>2025-02-03T09:14:38.027Z</time></trkpt><trkpt lat="28.001362" lon="85.567126"><ele>3160.752</ele><time>2025-02-03T09:14:44.027Z</time></trkpt><trkpt lat="28.001316" lon="85.567121"><ele>3160.587</ele><time>2025-02-03T09:14:52.027Z</time></trkpt><trkpt lat="28.001272" lon="85.567142"><ele>3160.334</ele><time>2025-02-03T09:14:57.027Z</time></trkpt><trkpt lat="28.001218" lon="85.567137"><ele>3160.083</ele><time>2025-02-03T09:15:21.027Z</time></trkpt><trkpt lat="28.001172" lon="85.567137"><ele>3159.898</ele><time>2025-02-03T09:15:26.027Z</time></trkpt><trkpt lat="28.001130" lon="85.567110"><ele>3159.556</ele><time>2025-02-03T09:15:32.027Z</time></trkpt><trkpt lat="28.001080" lon="85.567123"><ele>3159.359</ele><time>2025-02-03T09:15:38.027Z</time></trkpt><trkpt lat="28.001033" lon="85.567109"><ele>3159.014</ele><time>2025-02-03T09:15:47.027Z</time></trkpt><trkpt lat="28.000984" lon="85.567082"><ele>3158.709</ele><time>2025-02-03T09:16:16.027Z</time></trkpt><trkpt lat="28.000936" lon="85.567060"><ele>3158.417</ele><time>2025-02-03T09:16:21.027Z</time></trkpt><trkpt lat="28.000892" lon="85.567045"><ele>3158.285</ele><time>2025-02-03T09:16:25.027Z</time></trkpt><trkpt lat="28.000837" lon="85.567017"><ele>3157.935</ele><time>2025-02-03T09:16:30.027Z</time></trkpt><trkpt lat="28.000795" lon="85.566982"><ele>3157.937</ele><time>2025-02-03T09:16:35.027Z</time></trkpt><trkpt lat="28.000746" lon="85.566959"><ele>3158.178</ele><time>2025-02-03T09:16:40.028Z</time></trkpt><trkpt lat="28.000706" lon="85.566932"><ele>3158.283</ele><time>2025-02-03T09:16:44.028Z</time></trkpt><trkpt lat="28.000704" lon="85.566881"><ele>3158.150</ele><time>2025-02-03T09:16:48.028Z</time></trkpt><trkpt lat="28.000713" lon="85.566824"><ele>3157.959</ele><time>2025-02-03T09:16:54.028Z</time></trkpt><trkpt lat="28.000701" lon="85.566767"><ele>3157.884</ele><time>2025-02-03T09:17:03.028Z</time></trkpt><trkpt lat="28.000708" lon="85.566712"><ele>3157.695</ele><time>2025-02-03T09:17:08.028Z</time></trkpt><trkpt lat="28.000415" lon="85.566648"><ele>3157.749</ele><time>2025-02-03T10:04:01.027Z</time></trkpt><trkpt lat="28.000385" lon="85.566606"><ele>3155.923</ele><time>2025-02-03T10:04:07.027Z</time></trkpt><trkpt lat="28.000353" lon="85.566566"><ele>3154.309</ele><time>2025-02-03T10:04:12.027Z</time></trkpt><trkpt lat="28.000313" lon="85.566531"><ele>3152.811</ele><time>2025-02-03T10:04:20.027Z</time></trkpt><trkpt lat="28.000291" lon="85.566479"><ele>3150.619</ele><time>2025-02-03T10:04:28.027Z</time></trkpt><trkpt lat="28.000245" lon="85.566472"><ele>3150.459</ele><time>2025-02-03T10:04:34.027Z</time></trkpt><trkpt lat="28.000203" lon="85.566447"><ele>3149.351</ele><time>2025-02-03T10:04:40.027Z</time></trkpt><trkpt lat="28.000156" lon="85.566449"><ele>3149.562</ele><time>2025-02-03T10:04:46.027Z</time></trkpt><trkpt lat="28.000118" lon="85.566408"><ele>3147.767</ele><time>2025-02-03T10:04:54.028Z</time></trkpt><trkpt lat="28.000075" lon="85.566374"><ele>3146.214</ele><time>2025-02-03T10:05:04.028Z</time></trkpt><trkpt lat="28.000023" lon="85.566356"><ele>3145.433</ele><time>2025-02-03T10:05:11.028Z</time></trkpt><trkpt lat="27.999985" lon="85.566324"><ele>3144.088</ele><time>2025-02-03T10:05:16.028Z</time></trkpt><trkpt lat="27.999942" lon="85.566291"><ele>3142.612</ele><time>2025-02-03T10:05:20.028Z</time></trkpt><trkpt lat="27.999894" lon="85.566272"><ele>3141.832</ele><time>2025-02-03T10:05:25.028Z</time></trkpt><trkpt lat="27.999843" lon="85.566264"><ele>3141.605</ele><time>2025-02-03T10:05:29.028Z</time></trkpt><trkpt lat="27.999795" lon="85.566258"><ele>3141.509</ele><time>2025-02-03T10:05:34.028Z</time></trkpt><trkpt lat="27.999747" lon="85.566262"><ele>3141.843</ele><time>2025-02-03T10:05:40.028Z</time></trkpt><trkpt lat="27.999700" lon="85.566253"><ele>3141.521</ele><time>2025-02-03T10:05:46.028Z</time></trkpt><trkpt lat="27.999656" lon="85.566228"><ele>3140.591</ele><time>2025-02-03T10:05:51.028Z</time></trkpt><trkpt lat="27.999611" lon="85.566240"><ele>3141.253</ele><time>2025-02-03T10:05:55.028Z</time></trkpt><trkpt lat="27.999571" lon="85.566212"><ele>3140.074</ele><time>2025-02-03T10:06:00.028Z</time></trkpt><trkpt lat="27.999526" lon="85.566229"><ele>3141.019</ele><time>2025-02-03T10:06:04.028Z</time></trkpt><trkpt lat="27.999476" lon="85.566230"><ele>3141.216</ele><time>2025-02-03T10:06:09.028Z</time></trkpt><trkpt lat="27.999433" lon="85.566215"><ele>3140.635</ele><time>2025-02-03T10:06:14.028Z</time></trkpt><trkpt lat="27.999397" lon="85.566180"><ele>3139.130</ele><time>2025-02-03T10:06:20.028Z</time></trkpt><trkpt lat="27.999356" lon="85.566148"><ele>3137.828</ele><time>2025-02-03T10:06:25.028Z</time></trkpt><trkpt lat="27.999311" lon="85.566121"><ele>3136.789</ele><time>2025-02-03T10:06:29.028Z</time></trkpt><trkpt lat="27.999267" lon="85.566105"><ele>3136.117</ele><time>2025-02-03T10:06:35.028Z</time></trkpt><trkpt lat="27.999221" lon="85.566093"><ele>3135.709</ele><time>2025-02-03T10:06:41.028Z</time></trkpt><trkpt lat="27.999174" lon="85.566060"><ele>3134.354</ele><time>2025-02-03T10:06:49.028Z</time></trkpt><trkpt lat="27.999128" lon="85.566072"><ele>3134.982</ele><time>2025-02-03T10:06:53.028Z</time></trkpt><trkpt lat="27.999082" lon="85.566057"><ele>3134.322</ele><time>2025-02-03T10:06:58.029Z</time></trkpt><trkpt lat="27.999028" lon="85.566078"><ele>3135.494</ele><time>2025-02-03T10:07:05.029Z</time></trkpt><trkpt lat="27.998983" lon="85.566051"><ele>3134.225</ele><time>2025-02-03T10:07:12.029Z</time></trkpt><trkpt lat="27.998939" lon="85.566070"><ele>3135.190</ele><time>2025-02-03T10:07:16.029Z</time></trkpt><trkpt lat="27.998894" lon="85.566069"><ele>3135.287</ele><time>2025-02-03T10:07:18.029Z</time></trkpt><trkpt lat="27.998845" lon="85.566069"><ele>3135.216</ele><time>2025-02-03T10:07:24.029Z</time></trkpt><trkpt lat="27.998796" lon="85.566076"><ele>3135.611</ele><time>2025-02-03T10:07:31.029Z</time></trkpt><trkpt lat="27.998757" lon="85.566048"><ele>3134.436</ele><time>2025-02-03T10:07:37.029Z</time></trkpt><trkpt lat="27.998721" lon="85.566016"><ele>3133.017</ele><time>2025-02-03T10:07:46.029Z</time></trkpt><trkpt lat="27.998680" lon="85.565988"><ele>3131.718</ele><time>2025-02-03T10:07:57.029Z</time></trkpt><trkpt lat="27.998656" lon="85.565943"><ele>3129.709</ele><time>2025-02-03T10:08:01.029Z</time></trkpt><trkpt lat="27.998633" lon="85.565897"><ele>3127.695</ele><time>2025-02-03T10:08:11.029Z</time></trkpt><trkpt lat="27.998650" lon="85.565839"><ele>3124.963</ele><time>2025-02-03T10:08:16.029Z</time></trkpt><trkpt lat="27.998680" lon="85.565799"><ele>3123.283</ele><time>2025-02-03T10:08:26.029Z</time></trkpt><trkpt lat="27.998690" lon="85.565745"><ele>3121.165</ele><time>2025-02-03T10:08:43.029Z</time></trkpt><trkpt lat="27.998652" lon="85.565713"><ele>3119.816</ele><time>2025-02-03T10:08:53.029Z</time></trkpt><trkpt lat="27.998662" lon="85.565661"><ele>3117.831</ele><time>2025-02-03T10:09:01.029Z</time></trkpt><trkpt lat="27.998618" lon="85.565640"><ele>3116.968</ele><time>2025-02-03T10:09:07.030Z</time></trkpt><trkpt lat="27.998589" lon="85.565601"><ele>3115.477</ele><time>2025-02-03T10:09:11.030Z</time></trkpt><trkpt lat="27.998557" lon="85.565554"><ele>3113.432</ele><time>2025-02-03T10:09:16.030Z</time></trkpt><trkpt lat="27.998514" lon="85.565523"><ele>3112.255</ele><time>2025-02-03T10:09:22.030Z</time></trkpt><trkpt lat="27.998473" lon="85.565496"><ele>3111.007</ele><time>2025-02-03T10:09:26.030Z</time></trkpt><trkpt lat="27.998445" lon="85.565454"><ele>3109.217</ele><time>2025-02-03T10:09:31.030Z</time></trkpt><trkpt lat="27.998450" lon="85.565395"><ele>3106.809</ele><time>2025-02-03T10:09:36.030Z</time></trkpt><trkpt lat="27.998445" lon="85.565344"><ele>3104.767</ele><time>2025-02-03T10:09:41.030Z</time></trkpt><trkpt lat="27.998450" lon="85.565285"><ele>3102.355</ele><time>2025-02-03T10:09:45.030Z</time></trkpt><trkpt lat="27.998428" lon="85.565235"><ele>3100.255</ele><time>2025-02-03T10:09:50.030Z</time></trkpt><trkpt lat="27.998394" lon="85.565193"><ele>3098.327</ele><time>2025-02-03T10:09:55.030Z</time></trkpt><trkpt lat="27.998371" lon="85.565143"><ele>3096.168</ele><time>2025-02-03T10:10:04.030Z</time></trkpt><trkpt lat="27.998328" lon="85.565124"><ele>3095.133</ele><time>2025-02-03T10:10:08.030Z</time></trkpt><trkpt lat="27.998289" lon="85.565090"><ele>3093.250</ele><time>2025-02-03T10:10:17.030Z</time></trkpt><trkpt lat="27.998265" lon="85.565042"><ele>3090.919</ele><time>2025-02-03T10:10:20.030Z</time></trkpt><trkpt lat="27.998229" lon="85.565011"><ele>3089.164</ele><time>2025-02-03T10:10:25.030Z</time></trkpt><trkpt lat="27.998186" lon="85.564992"><ele>3087.687</ele><time>2025-02-03T10:10:32.030Z</time></trkpt><trkpt lat="27.998144" lon="85.564969"><ele>3085.742</ele><time>2025-02-03T10:10:39.030Z</time></trkpt><trkpt lat="27.998136" lon="85.564908"><ele>3082.126</ele><time>2025-02-03T10:10:44.030Z</time></trkpt><trkpt lat="27.998149" lon="85.564846"><ele>3078.709</ele><time>2025-02-03T10:10:51.030Z</time></trkpt><trkpt lat="27.998170" lon="85.564794"><ele>3076.020</ele><time>2025-02-03T10:10:55.030Z</time></trkpt><trkpt lat="27.998157" lon="85.564739"><ele>3072.738</ele><time>2025-02-03T10:10:59.030Z</time></trkpt><trkpt lat="27.998150" lon="85.564684"><ele>3069.588</ele><time>2025-02-03T10:11:05.030Z</time></trkpt><trkpt lat="27.998104" lon="85.564671"><ele>3068.110</ele><time>2025-02-03T10:11:11.031Z</time></trkpt><trkpt lat="27.998134" lon="85.564631"><ele>3066.261</ele><time>2025-02-03T10:11:19.031Z</time></trkpt><trkpt lat="27.998133" lon="85.564575"><ele>3063.046</ele><time>2025-02-03T10:11:26.031Z</time></trkpt><trkpt lat="27.998097" lon="85.564611"><ele>3064.673</ele><time>2025-02-03T10:11:33.031Z</time></trkpt><trkpt lat="27.998048" lon="85.564604"><ele>3063.672</ele><time>2025-02-03T10:11:43.031Z</time></trkpt><trkpt lat="27.998062" lon="85.564545"><ele>3060.477</ele><time>2025-02-03T10:12:01.031Z</time></trkpt><trkpt lat="27.998078" lon="85.564491"><ele>3057.553</ele><time>2025-02-03T10:12:08.031Z</time></trkpt><trkpt lat="27.998121" lon="85.564456"><ele>3056.004</ele><time>2025-02-03T10:12:15.031Z</time></trkpt><trkpt lat="27.998142" lon="85.564407"><ele>3053.514</ele><time>2025-02-03T10:12:21.031Z</time></trkpt><trkpt lat="27.998180" lon="85.564379"><ele>3052.309</ele><time>2025-02-03T10:12:36.031Z</time></trkpt><trkpt lat="27.998193" lon="85.564326"><ele>3049.517</ele><time>2025-02-03T10:13:05.031Z</time></trkpt><trkpt lat="27.998241" lon="85.564333"><ele>3050.525</ele><time>2025-02-03T10:13:33.032Z</time></trkpt><trkpt lat="27.998249" lon="85.564274"><ele>3047.285</ele><time>2025-02-03T10:13:42.032Z</time></trkpt><trkpt lat="27.998263" lon="85.564221"><ele>3044.377</ele><time>2025-02-03T10:13:55.032Z</time></trkpt><trkpt lat="27.998289" lon="85.564175"><ele>3041.978</ele><time>2025-02-03T10:14:03.032Z</time></trkpt><trkpt lat="27.998326" lon="85.564138"><ele>3040.083</ele><time>2025-02-03T10:14:13.032Z</time></trkpt><trkpt lat="27.998323" lon="85.564080"><ele>3036.170</ele><time>2025-02-03T10:14:27.032Z</time></trkpt><trkpt lat="27.998335" lon="85.564030"><ele>3032.839</ele><time>2025-02-03T10:14:32.032Z</time></trkpt><trkpt lat="27.998308" lon="85.563984"><ele>3029.434</ele><time>2025-02-03T10:14:36.032Z</time></trkpt><trkpt lat="27.998263" lon="85.564001"><ele>3030.014</ele><time>2025-02-03T10:14:44.032Z</time></trkpt><trkpt lat="27.998258" lon="85.563948"><ele>3026.454</ele><time>2025-02-03T10:14:59.032Z</time></trkpt><trkpt lat="27.998284" lon="85.563899"><ele>3023.409</ele><time>2025-02-03T10:15:45.033Z</time></trkpt><trkpt lat="27.998315" lon="85.563862"><ele>3021.309</ele><time>2025-02-03T10:15:52.033Z</time></trkpt><trkpt lat="27.998351" lon="85.563831"><ele>3019.743</ele><time>2025-02-03T10:15:59.033Z</time></trkpt><trkpt lat="27.998363" lon="85.563770"><ele>3015.811</ele><time>2025-02-03T10:16:05.033Z</time></trkpt><trkpt lat="27.998389" lon="85.563718"><ele>3012.881</ele><time>2025-02-03T10:16:13.033Z</time></trkpt><trkpt lat="27.998391" lon="85.563662"><ele>3009.193</ele><time>2025-02-03T10:16:23.033Z</time></trkpt><trkpt lat="27.998377" lon="85.563613"><ele>3005.664</ele><time>2025-02-03T10:16:31.033Z</time></trkpt><trkpt lat="27.998389" lon="85.563560"><ele>3002.359</ele><time>2025-02-03T10:16:39.033Z</time></trkpt><trkpt lat="27.998360" lon="85.563518"><ele>2998.996</ele><time>2025-02-03T10:16:49.033Z</time></trkpt><trkpt lat="27.998337" lon="85.563474"><ele>2995.585</ele><time>2025-02-03T10:17:01.033Z</time></trkpt><trkpt lat="27.998333" lon="85.563413"><ele>2991.350</ele><time>2025-02-03T10:17:15.033Z</time></trkpt><trkpt lat="27.998324" lon="85.563359"><ele>2987.674</ele><time>2025-02-03T10:17:22.033Z</time></trkpt><trkpt lat="27.998349" lon="85.563316"><ele>2985.356</ele><time>2025-02-03T10:17:45.034Z</time></trkpt><trkpt lat="27.998310" lon="85.563284"><ele>2982.721</ele><time>2025-02-03T10:18:11.034Z</time></trkpt><trkpt lat="27.998299" lon="85.563226"><ele>2979.009</ele><time>2025-02-03T10:18:18.034Z</time></trkpt><trkpt lat="27.998249" lon="85.563227"><ele>2978.469</ele><time>2025-02-03T10:18:27.034Z</time></trkpt><trkpt lat="27.998203" lon="85.563252"><ele>2979.337</ele><time>2025-02-03T10:18:41.034Z</time></trkpt><trkpt lat="27.998177" lon="85.563297"><ele>2981.787</ele><time>2025-02-03T10:18:50.034Z</time></trkpt><trkpt lat="27.998136" lon="85.563263"><ele>2979.229</ele><time>2025-02-03T10:18:59.034Z</time></trkpt><trkpt lat="27.998088" lon="85.563277"><ele>2979.440</ele><time>2025-02-03T10:19:14.034Z</time></trkpt><trkpt lat="27.998043" lon="85.563288"><ele>2979.565</ele><time>2025-02-03T10:19:22.034Z</time></trkpt><trkpt lat="27.997999" lon="85.563305"><ele>2979.982</ele><time>2025-02-03T10:19:26.034Z</time></trkpt><trkpt lat="27.998032" lon="85.563265"><ele>2977.971</ele><time>2025-02-03T10:19:32.035Z</time></trkpt><trkpt lat="27.998000" lon="85.563227"><ele>2975.276</ele><time>2025-02-03T10:19:46.035Z</time></trkpt><trkpt lat="27.997957" lon="85.563212"><ele>2973.837</ele><time>2025-02-03T10:19:54.035Z</time></trkpt><trkpt lat="27.997911" lon="85.563230"><ele>2974.349</ele><time>2025-02-03T10:19:59.035Z</time></trkpt><trkpt lat="27.997858" lon="85.563203"><ele>2972.013</ele><time>2025-02-03T10:20:08.035Z</time></trkpt><trkpt lat="27.997820" lon="85.563171"><ele>2969.609</ele><time>2025-02-03T10:20:18.035Z</time></trkpt><trkpt lat="27.997773" lon="85.563150"><ele>2967.855</ele><time>2025-02-03T10:20:27.035Z</time></trkpt><trkpt lat="27.997725" lon="85.563131"><ele>2966.113</ele><time>2025-02-03T10:20:33.035Z</time></trkpt><trkpt lat="27.997686" lon="85.563159"><ele>2967.343</ele><time>2025-02-03T10:20:40.035Z</time></trkpt><trkpt lat="27.997688" lon="85.563104"><ele>2964.195</ele><time>2025-02-03T10:20:48.035Z</time></trkpt><trkpt lat="27.997716" lon="85.563054"><ele>2961.536</ele><time>2025-02-03T10:20:54.035Z</time></trkpt><trkpt lat="27.997697" lon="85.563007"><ele>2958.571</ele><time>2025-02-03T10:21:13.035Z</time></trkpt><trkpt lat="27.997650" lon="85.563008"><ele>2958.098</ele><time>2025-02-03T10:21:24.035Z</time></trkpt><trkpt lat="27.997614" lon="85.562975"><ele>2955.717</ele><time>2025-02-03T10:21:30.035Z</time></trkpt><trkpt lat="27.997591" lon="85.562928"><ele>2952.782</ele><time>2025-02-03T10:21:37.036Z</time></trkpt><trkpt lat="27.997555" lon="85.562890"><ele>2950.136</ele><time>2025-02-03T10:21:52.036Z</time></trkpt><trkpt lat="27.997513" lon="85.562861"><ele>2947.917</ele><time>2025-02-03T10:22:02.036Z</time></trkpt><trkpt lat="27.997466" lon="85.562868"><ele>2949.118</ele><time>2025-02-03T10:22:10.036Z</time></trkpt><trkpt lat="27.997423" lon="85.562840"><ele>2948.709</ele><time>2025-02-03T10:22:20.036Z</time></trkpt><trkpt lat="27.997371" lon="85.562823"><ele>2949.185</ele><time>2025-02-03T10:22:32.036Z</time></trkpt><trkpt lat="27.997330" lon="85.562789"><ele>2948.393</ele><time>2025-02-03T10:22:43.036Z</time></trkpt><trkpt lat="27.997281" lon="85.562730"><ele>2946.333</ele><time>2025-02-03T10:22:52.036Z</time></trkpt><trkpt lat="27.997239" lon="85.562700"><ele>2945.715</ele><time>2025-02-03T10:23:18.036Z</time></trkpt><trkpt lat="27.997201" lon="85.562667"><ele>2944.936</ele><time>2025-02-03T10:23:28.036Z</time></trkpt><trkpt lat="27.997195" lon="85.562612"><ele>2942.021</ele><time>2025-02-03T10:23:39.036Z</time></trkpt><trkpt lat="27.997174" lon="85.562565"><ele>2940.068</ele><time>2025-02-03T10:23:49.037Z</time></trkpt><trkpt lat="27.997189" lon="85.562510"><ele>2936.557</ele><time>2025-02-03T10:24:28.035Z</time></trkpt><trkpt lat="27.997217" lon="85.562470"><ele>2933.762</ele><time>2025-02-03T10:24:38.035Z</time></trkpt><trkpt lat="27.997224" lon="85.562418"><ele>2931.089</ele><time>2025-02-03T10:24:48.035Z</time></trkpt><trkpt lat="27.997193" lon="85.562382"><ele>2930.306</ele><time>2025-02-03T10:24:55.035Z</time></trkpt><trkpt lat="27.997197" lon="85.562327"><ele>2927.526</ele><time>2025-02-03T10:25:06.035Z</time></trkpt><trkpt lat="27.997218" lon="85.562280"><ele>2924.709</ele><time>2025-02-03T10:25:16.035Z</time></trkpt><trkpt lat="27.997260" lon="85.562260"><ele>2922.460</ele><time>2025-02-03T10:25:23.035Z</time></trkpt><trkpt lat="27.997248" lon="85.562206"><ele>2920.288</ele><time>2025-02-03T10:25:43.035Z</time></trkpt><trkpt lat="27.997216" lon="85.562162"><ele>2919.148</ele><time>2025-02-03T10:25:51.036Z</time></trkpt><trkpt lat="27.997252" lon="85.562130"><ele>2916.480</ele><time>2025-02-03T10:25:58.037Z</time></trkpt><trkpt lat="27.997286" lon="85.562095"><ele>2913.681</ele><time>2025-02-03T10:26:05.037Z</time></trkpt><trkpt lat="27.997324" lon="85.562066"><ele>2911.046</ele><time>2025-02-03T10:26:12.037Z</time></trkpt><trkpt lat="27.997371" lon="85.562053"><ele>2908.853</ele><time>2025-02-03T10:26:18.037Z</time></trkpt><trkpt lat="27.997414" lon="85.562035"><ele>2906.422</ele><time>2025-02-03T10:26:26.037Z</time></trkpt><trkpt lat="27.997444" lon="85.561990"><ele>2903.257</ele><time>2025-02-03T10:26:34.037Z</time></trkpt><trkpt lat="27.997493" lon="85.561965"><ele>2900.311</ele><time>2025-02-03T10:26:41.037Z</time></trkpt><trkpt lat="27.997531" lon="85.561929"><ele>2898.521</ele><time>2025-02-03T10:26:46.037Z</time></trkpt><trkpt lat="27.997505" lon="85.561973"><ele>2900.503</ele><time>2025-02-03T10:26:54.037Z</time></trkpt><trkpt lat="27.997531" lon="85.561925"><ele>2898.309</ele><time>2025-02-03T10:27:45.036Z</time></trkpt><trkpt lat="27.997579" lon="85.561889"><ele>2896.813</ele><time>2025-02-03T10:27:50.036Z</time></trkpt><trkpt lat="27.997583" lon="85.561832"><ele>2894.071</ele><time>2025-02-03T10:27:56.037Z</time></trkpt><trkpt lat="27.997559" lon="85.561783"><ele>2891.331</ele><time>2025-02-03T10:28:02.037Z</time></trkpt><trkpt lat="27.997568" lon="85.561728"><ele>2888.613</ele><time>2025-02-03T10:28:07.037Z</time></trkpt><trkpt lat="27.997561" lon="85.561676"><ele>2885.984</ele><time>2025-02-03T10:28:12.037Z</time></trkpt><trkpt lat="27.997558" lon="85.561622"><ele>2883.329</ele><time>2025-02-03T10:28:19.037Z</time></trkpt><trkpt lat="27.997586" lon="85.561578"><ele>2881.316</ele><time>2025-02-03T10:28:25.037Z</time></trkpt><trkpt lat="27.997621" lon="85.561532"><ele>2879.315</ele><time>2025-02-03T10:28:30.037Z</time></trkpt><trkpt lat="27.997621" lon="85.561477"><ele>2876.620</ele><time>2025-02-03T10:28:40.037Z</time></trkpt><trkpt lat="27.997611" lon="85.561419"><ele>2873.865</ele><time>2025-02-03T10:28:49.037Z</time></trkpt><trkpt lat="27.997565" lon="85.561395"><ele>2872.368</ele><time>2025-02-03T10:28:58.037Z</time></trkpt><trkpt lat="27.997563" lon="85.561344"><ele>2869.814</ele><time>2025-02-03T10:29:08.037Z</time></trkpt><trkpt lat="27.997568" lon="85.561290"><ele>2867.309</ele><time>2025-02-03T10:29:15.037Z</time></trkpt><trkpt lat="27.997598" lon="85.561251"><ele>2865.568</ele><time>2025-02-03T10:29:25.037Z</time></trkpt><trkpt lat="27.997577" lon="85.561203"><ele>2863.176</ele><time>2025-02-03T10:29:32.037Z</time></trkpt><trkpt lat="27.997602" lon="85.561156"><ele>2860.916</ele><time>2025-02-03T10:29:55.037Z</time></trkpt><trkpt lat="27.997614" lon="85.561103"><ele>2858.428</ele><time>2025-02-03T10:30:02.038Z</time></trkpt><trkpt lat="27.997567" lon="85.561095"><ele>2857.879</ele><time>2025-02-03T10:30:15.038Z</time></trkpt><trkpt lat="27.997514" lon="85.561064"><ele>2856.124</ele><time>2025-02-03T10:30:31.038Z</time></trkpt><trkpt lat="27.997516" lon="85.561009"><ele>2853.591</ele><time>2025-02-03T10:30:45.038Z</time></trkpt><trkpt lat="27.997512" lon="85.560949"><ele>2850.620</ele><time>2025-02-03T10:31:03.038Z</time></trkpt><trkpt lat="27.997508" lon="85.560898"><ele>2848.115</ele><time>2025-02-03T10:31:10.038Z</time></trkpt><trkpt lat="27.997543" lon="85.560865"><ele>2846.636</ele><time>2025-02-03T10:31:17.038Z</time></trkpt><trkpt lat="27.997560" lon="85.560808"><ele>2843.917</ele><time>2025-02-03T10:31:25.038Z</time></trkpt><trkpt lat="27.997558" lon="85.560755"><ele>2841.418</ele><time>2025-02-03T10:31:30.038Z</time></trkpt><trkpt lat="27.997564" lon="85.560697"><ele>2838.709</ele><time>2025-02-03T10:31:38.038Z</time></trkpt><trkpt lat="27.997519" lon="85.560706"><ele>2839.195</ele><time>2025-02-03T10:31:45.038Z</time></trkpt><trkpt lat="27.997500" lon="85.560657"><ele>2836.753</ele><time>2025-02-03T10:31:50.038Z</time></trkpt><trkpt lat="27.997491" lon="85.560601"><ele>2834.523</ele><time>2025-02-03T10:32:25.039Z</time></trkpt><trkpt lat="27.997518" lon="85.560557"><ele>2832.195</ele><time>2025-02-03T10:32:32.039Z</time></trkpt><trkpt lat="27.997473" lon="85.560530"><ele>2831.836</ele><time>2025-02-03T10:32:56.039Z</time></trkpt><trkpt lat="27.997443" lon="85.560491"><ele>2831.191</ele><time>2025-02-03T10:33:04.039Z</time></trkpt><trkpt lat="27.997447" lon="85.560436"><ele>2828.398</ele><time>2025-02-03T10:33:37.039Z</time></trkpt><trkpt lat="27.997446" lon="85.560378"><ele>2825.647</ele><time>2025-02-03T10:33:45.039Z</time></trkpt><trkpt lat="27.997463" lon="85.560329"><ele>2822.792</ele><time>2025-02-03T10:33:52.039Z</time></trkpt><trkpt lat="27.997467" lon="85.560277"><ele>2820.178</ele><time>2025-02-03T10:34:01.039Z</time></trkpt><trkpt lat="27.997484" lon="85.560228"><ele>2817.233</ele><time>2025-02-03T10:34:08.039Z</time></trkpt><trkpt lat="27.997487" lon="85.560173"><ele>2814.526</ele><time>2025-02-03T10:34:15.040Z</time></trkpt><trkpt lat="27.997485" lon="85.560118"><ele>2812.009</ele><time>2025-02-03T10:34:22.040Z</time></trkpt><trkpt lat="27.997514" lon="85.560069"><ele>2809.259</ele><time>2025-02-03T10:34:31.040Z</time></trkpt><trkpt lat="27.997529" lon="85.560016"><ele>2806.667</ele><time>2025-02-03T10:34:39.040Z</time></trkpt><trkpt lat="27.997548" lon="85.559961"><ele>2804.677</ele><time>2025-02-03T10:34:46.040Z</time></trkpt><trkpt lat="27.997574" lon="85.559915"><ele>2803.139</ele><time>2025-02-03T10:34:55.040Z</time></trkpt><trkpt lat="27.997524" lon="85.559893"><ele>2802.780</ele><time>2025-02-03T10:35:03.040Z</time></trkpt><trkpt lat="27.997528" lon="85.559833"><ele>2800.945</ele><time>2025-02-03T10:35:11.040Z</time></trkpt><trkpt lat="27.997516" lon="85.559773"><ele>2799.142</ele><time>2025-02-03T10:35:18.040Z</time></trkpt><trkpt lat="27.997553" lon="85.559737"><ele>2797.841</ele><time>2025-02-03T10:35:27.040Z</time></trkpt><trkpt lat="27.997596" lon="85.559700"><ele>2796.416</ele><time>2025-02-03T10:35:38.040Z</time></trkpt><trkpt lat="27.997577" lon="85.559650"><ele>2795.093</ele><time>2025-02-03T10:35:51.040Z</time></trkpt><trkpt lat="27.997606" lon="85.559607"><ele>2793.565</ele><time>2025-02-03T10:36:09.040Z</time></trkpt><trkpt lat="27.997617" lon="85.559549"><ele>2791.721</ele><time>2025-02-03T10:36:17.040Z</time></trkpt><trkpt lat="27.997630" lon="85.559490"><ele>2789.809</ele><time>2025-02-03T10:36:29.041Z</time></trkpt><trkpt lat="27.997662" lon="85.559444"><ele>2788.111</ele><time>2025-02-03T10:36:33.041Z</time></trkpt><trkpt lat="27.997707" lon="85.559433"><ele>2787.469</ele><time>2025-02-03T10:36:39.041Z</time></trkpt><trkpt lat="27.997750" lon="85.559398"><ele>2786.039</ele><time>2025-02-03T10:36:44.041Z</time></trkpt><trkpt lat="27.997788" lon="85.559360"><ele>2784.451</ele><time>2025-02-03T10:36:50.041Z</time></trkpt><trkpt lat="27.997842" lon="85.559333"><ele>2783.182</ele><time>2025-02-03T10:36:55.041Z</time></trkpt><trkpt lat="27.997847" lon="85.559281"><ele>2781.437</ele><time>2025-02-03T10:36:59.041Z</time></trkpt><trkpt lat="27.997873" lon="85.559239"><ele>2779.834</ele><time>2025-02-03T10:37:04.041Z</time></trkpt><trkpt lat="27.997918" lon="85.559230"><ele>2779.193</ele><time>2025-02-03T10:37:08.041Z</time></trkpt><trkpt lat="27.997927" lon="85.559180"><ele>2777.378</ele><time>2025-02-03T10:37:43.041Z</time></trkpt><trkpt lat="27.997948" lon="85.559131"><ele>2776.031</ele><time>2025-02-03T10:37:48.041Z</time></trkpt><trkpt lat="27.997985" lon="85.559101"><ele>2775.061</ele><time>2025-02-03T10:38:02.041Z</time></trkpt><trkpt lat="27.998029" lon="85.559085"><ele>2774.107</ele><time>2025-02-03T10:38:09.041Z</time></trkpt><trkpt lat="27.998059" lon="85.559033"><ele>2772.509</ele><time>2025-02-03T10:38:20.041Z</time></trkpt><trkpt lat="27.998096" lon="85.558991"><ele>2770.975</ele><time>2025-02-03T10:38:25.042Z</time></trkpt><trkpt lat="27.998127" lon="85.558953"><ele>2769.423</ele><time>2025-02-03T10:38:30.042Z</time></trkpt><trkpt lat="27.998157" lon="85.558914"><ele>2767.873</ele><time>2025-02-03T10:38:35.042Z</time></trkpt><trkpt lat="27.998182" lon="85.558856"><ele>2765.775</ele><time>2025-02-03T10:38:43.042Z</time></trkpt><trkpt lat="27.998165" lon="85.558809"><ele>2764.866</ele><time>2025-02-03T10:38:50.042Z</time></trkpt><trkpt lat="27.998157" lon="85.558759"><ele>2763.691</ele><time>2025-02-03T10:38:55.042Z</time></trkpt><trkpt lat="27.998119" lon="85.558723"><ele>2763.638</ele><time>2025-02-03T10:39:02.042Z</time></trkpt><trkpt lat="27.998097" lon="85.558675"><ele>2762.957</ele><time>2025-02-03T10:39:08.042Z</time></trkpt><trkpt lat="27.998049" lon="85.558656"><ele>2763.852</ele><time>2025-02-03T10:39:14.042Z</time></trkpt><trkpt lat="27.998022" lon="85.558615"><ele>2763.662</ele><time>2025-02-03T10:39:18.042Z</time></trkpt><trkpt lat="27.997985" lon="85.558573"><ele>2763.883</ele><time>2025-02-03T10:39:31.042Z</time></trkpt><trkpt lat="27.997957" lon="85.558533"><ele>2763.911</ele><time>2025-02-03T10:39:38.042Z</time></trkpt><trkpt lat="27.997966" lon="85.558482"><ele>2762.609</ele><time>2025-02-03T10:39:47.042Z</time></trkpt><trkpt lat="27.997980" lon="85.558432"><ele>2761.188</ele><time>2025-02-03T10:39:53.042Z</time></trkpt><trkpt lat="27.997962" lon="85.558380"><ele>2760.656</ele><time>2025-02-03T10:40:01.042Z</time></trkpt><trkpt lat="27.997952" lon="85.558328"><ele>2760.066</ele><time>2025-02-03T10:40:08.042Z</time></trkpt><trkpt lat="27.997986" lon="85.558280"><ele>2757.238</ele><time>2025-02-03T10:40:15.042Z</time></trkpt><trkpt lat="27.997991" lon="85.558211"><ele>2755.149</ele><time>2025-02-03T10:40:25.042Z</time></trkpt><trkpt lat="27.997987" lon="85.558157"><ele>2753.794</ele><time>2025-02-03T10:41:10.043Z</time></trkpt><trkpt lat="27.998008" lon="85.558104"><ele>2751.461</ele><time>2025-02-03T10:41:19.043Z</time></trkpt><trkpt lat="27.998027" lon="85.558055"><ele>2749.220</ele><time>2025-02-03T10:41:24.043Z</time></trkpt><trkpt lat="27.998066" lon="85.558018"><ele>2746.645</ele><time>2025-02-03T10:41:46.043Z</time></trkpt><trkpt lat="27.998062" lon="85.557963"><ele>2745.278</ele><time>2025-02-03T10:41:50.043Z</time></trkpt><trkpt lat="27.998034" lon="85.557920"><ele>2745.133</ele><time>2025-02-03T10:41:57.043Z</time></trkpt><trkpt lat="27.997988" lon="85.557905"><ele>2746.626</ele><time>2025-02-03T10:42:01.043Z</time></trkpt><trkpt lat="27.997988" lon="85.557838"><ele>2744.709</ele><time>2025-02-03T10:42:08.043Z</time></trkpt><trkpt lat="27.997983" lon="85.557766"><ele>2742.859</ele><time>2025-02-03T10:42:13.043Z</time></trkpt><trkpt lat="27.997968" lon="85.557715"><ele>2742.017</ele><time>2025-02-03T10:42:18.043Z</time></trkpt><trkpt lat="27.997944" lon="85.557665"><ele>2741.567</ele><time>2025-02-03T10:42:22.043Z</time></trkpt><trkpt lat="27.997915" lon="85.557622"><ele>2741.539</ele><time>2025-02-03T10:42:28.043Z</time></trkpt><trkpt lat="27.997869" lon="85.557606"><ele>2742.950</ele><time>2025-02-03T10:42:35.043Z</time></trkpt><trkpt lat="27.997817" lon="85.557593"><ele>2744.715</ele><time>2025-02-03T10:42:40.044Z</time></trkpt><trkpt lat="27.997794" lon="85.557545"><ele>2744.382</ele><time>2025-02-03T10:42:50.044Z</time></trkpt><trkpt lat="27.997771" lon="85.557489"><ele>2743.581</ele><time>2025-02-03T10:42:57.044Z</time></trkpt><trkpt lat="27.997767" lon="85.557437"><ele>2741.786</ele><time>2025-02-03T10:43:17.044Z</time></trkpt><trkpt lat="27.997773" lon="85.557380"><ele>2739.341</ele><time>2025-02-03T10:43:21.044Z</time></trkpt><trkpt lat="27.997752" lon="85.557333"><ele>2738.481</ele><time>2025-02-03T10:43:27.044Z</time></trkpt><trkpt lat="27.997718" lon="85.557296"><ele>2738.309</ele><time>2025-02-03T10:43:36.044Z</time></trkpt><trkpt lat="27.997723" lon="85.557241"><ele>2736.109</ele><time>2025-02-03T10:43:47.044Z</time></trkpt><trkpt lat="27.997697" lon="85.557198"><ele>2735.456</ele><time>2025-02-03T10:44:08.044Z</time></trkpt><trkpt lat="27.997676" lon="85.557147"><ele>2734.324</ele><time>2025-02-03T10:44:15.044Z</time></trkpt><trkpt lat="27.997707" lon="85.557102"><ele>2731.474</ele><time>2025-02-03T10:44:25.044Z</time></trkpt><trkpt lat="27.997701" lon="85.557044"><ele>2729.426</ele><time>2025-02-03T10:44:33.044Z</time></trkpt><trkpt lat="27.997695" lon="85.556992"><ele>2727.647</ele><time>2025-02-03T10:44:46.045Z</time></trkpt><trkpt lat="27.997736" lon="85.556967"><ele>2725.252</ele><time>2025-02-03T10:45:03.045Z</time></trkpt><trkpt lat="27.997738" lon="85.556910"><ele>2722.959</ele><time>2025-02-03T10:45:16.045Z</time></trkpt><trkpt lat="27.997731" lon="85.556854"><ele>2721.178</ele><time>2025-02-03T10:45:26.045Z</time></trkpt><trkpt lat="27.997729" lon="85.556802"><ele>2719.213</ele><time>2025-02-03T10:45:32.045Z</time></trkpt><trkpt lat="27.997749" lon="85.556747"><ele>2716.498</ele><time>2025-02-03T10:45:39.045Z</time></trkpt><trkpt lat="27.997745" lon="85.556696"><ele>2714.615</ele><time>2025-02-03T10:45:45.045Z</time></trkpt><trkpt lat="27.997749" lon="85.556634"><ele>2711.826</ele><time>2025-02-03T10:45:55.045Z</time></trkpt><trkpt lat="27.997741" lon="85.556578"><ele>2709.309</ele><time>2025-02-03T10:46:12.045Z</time></trkpt><trkpt lat="27.997750" lon="85.556525"><ele>2706.441</ele><time>2025-02-03T10:46:20.045Z</time></trkpt><trkpt lat="27.997759" lon="85.556466"><ele>2703.379</ele><time>2025-02-03T10:46:46.045Z</time></trkpt><trkpt lat="27.997808" lon="85.556450"><ele>2700.849</ele><time>2025-02-03T10:47:01.046Z</time></trkpt><trkpt lat="27.997777" lon="85.556409"><ele>2699.941</ele><time>2025-02-03T10:47:09.046Z</time></trkpt><trkpt lat="27.997740" lon="85.556374"><ele>2699.552</ele><time>2025-02-03T10:47:23.046Z</time></trkpt><trkpt lat="27.997713" lon="85.556327"><ele>2698.267</ele><time>2025-02-03T10:47:34.046Z</time></trkpt><trkpt lat="27.997760" lon="85.556332"><ele>2696.884</ele><time>2025-02-03T10:47:42.046Z</time></trkpt><trkpt lat="27.997804" lon="85.556322"><ele>2694.793</ele><time>2025-02-03T10:47:57.046Z</time></trkpt><trkpt lat="27.997797" lon="85.556268"><ele>2692.418</ele><time>2025-02-03T10:48:07.046Z</time></trkpt><trkpt lat="27.997783" lon="85.556219"><ele>2690.596</ele><time>2025-02-03T10:48:49.046Z</time></trkpt><trkpt lat="27.997796" lon="85.556170"><ele>2687.631</ele><time>2025-02-03T10:48:58.047Z</time></trkpt><trkpt lat="27.997842" lon="85.556172"><ele>2686.124</ele><time>2025-02-03T10:49:19.047Z</time></trkpt><trkpt lat="27.997878" lon="85.556123"><ele>2682.509</ele><time>2025-02-03T10:49:25.047Z</time></trkpt><trkpt lat="27.997924" lon="85.556115"><ele>2680.411</ele><time>2025-02-03T10:49:34.047Z</time></trkpt><trkpt lat="27.997972" lon="85.556113"><ele>2678.699</ele><time>2025-02-03T10:49:46.047Z</time></trkpt><trkpt lat="27.998019" lon="85.556113"><ele>2676.949</ele><time>2025-02-03T10:49:53.047Z</time></trkpt><trkpt lat="27.998056" lon="85.556080"><ele>2674.031</ele><time>2025-02-03T10:50:04.047Z</time></trkpt><trkpt lat="27.998083" lon="85.556038"><ele>2671.032</ele><time>2025-02-03T10:50:12.047Z</time></trkpt><trkpt lat="27.998100" lon="85.555983"><ele>2667.727</ele><time>2025-02-03T10:50:22.047Z</time></trkpt><trkpt lat="27.998129" lon="85.555936"><ele>2664.424</ele><time>2025-02-03T10:50:26.047Z</time></trkpt><trkpt lat="27.998176" lon="85.555906"><ele>2661.233</ele><time>2025-02-03T10:50:31.047Z</time></trkpt><trkpt lat="27.998174" lon="85.555853"><ele>2658.788</ele><time>2025-02-03T10:50:53.047Z</time></trkpt><trkpt lat="27.998160" lon="85.555799"><ele>2657.053</ele><time>2025-02-03T10:51:07.048Z</time></trkpt><trkpt lat="27.998152" lon="85.555746"><ele>2655.304</ele><time>2025-02-03T10:51:13.048Z</time></trkpt><trkpt lat="27.998110" lon="85.555714"><ele>2655.614</ele><time>2025-02-03T10:51:19.048Z</time></trkpt><trkpt lat="27.998134" lon="85.555664"><ele>2652.909</ele><time>2025-02-03T10:51:49.048Z</time></trkpt><trkpt lat="27.998178" lon="85.555681"><ele>2651.997</ele><time>2025-02-03T10:52:02.048Z</time></trkpt><trkpt lat="27.998218" lon="85.555642"><ele>2648.955</ele><time>2025-02-03T10:52:09.048Z</time></trkpt><trkpt lat="27.998268" lon="85.555642"><ele>2647.165</ele><time>2025-02-03T10:52:17.048Z</time></trkpt><trkpt lat="27.998314" lon="85.555668"><ele>2646.477</ele><time>2025-02-03T10:52:25.048Z</time></trkpt><trkpt lat="27.998354" lon="85.555640"><ele>2644.218</ele><time>2025-02-03T10:52:38.048Z</time></trkpt><trkpt lat="27.998385" lon="85.555681"><ele>2645.223</ele><time>2025-02-03T10:53:00.048Z</time></trkpt><trkpt lat="27.998403" lon="85.555630"><ele>2642.980</ele><time>2025-02-03T10:53:12.049Z</time></trkpt><trkpt lat="27.998412" lon="85.555580"><ele>2640.889</ele><time>2025-02-03T10:53:31.049Z</time></trkpt><trkpt lat="27.998453" lon="85.555545"><ele>2638.674</ele><time>2025-02-03T10:53:45.049Z</time></trkpt><trkpt lat="27.998496" lon="85.555510"><ele>2636.348</ele><time>2025-02-03T10:54:01.049Z</time></trkpt><trkpt lat="27.998533" lon="85.555477"><ele>2634.261</ele><time>2025-02-03T10:54:07.049Z</time></trkpt><trkpt lat="27.998581" lon="85.555494"><ele>2634.017</ele><time>2025-02-03T10:54:12.049Z</time></trkpt><trkpt lat="27.998629" lon="85.555492"><ele>2632.909</ele><time>2025-02-03T10:54:20.049Z</time></trkpt><trkpt lat="27.998687" lon="85.555486"><ele>2631.576</ele><time>2025-02-03T10:54:27.049Z</time></trkpt><trkpt lat="27.998722" lon="85.555446"><ele>2629.114</ele><time>2025-02-03T10:54:32.049Z</time></trkpt><trkpt lat="27.998778" lon="85.555415"><ele>2626.694</ele><time>2025-02-03T10:54:41.049Z</time></trkpt><trkpt lat="27.998823" lon="85.555382"><ele>2624.236</ele><time>2025-02-03T10:54:46.049Z</time></trkpt><trkpt lat="27.998870" lon="85.555357"><ele>2622.117</ele><time>2025-02-03T10:54:50.049Z</time></trkpt><trkpt lat="27.998917" lon="85.555361"><ele>2621.362</ele><time>2025-02-03T10:54:56.049Z</time></trkpt><trkpt lat="27.998923" lon="85.555310"><ele>2618.959</ele><time>2025-02-03T10:55:06.049Z</time></trkpt><trkpt lat="27.998884" lon="85.555279"><ele>2618.438</ele><time>2025-02-03T10:55:10.050Z</time></trkpt><trkpt lat="27.998840" lon="85.555249"><ele>2618.163</ele><time>2025-02-03T10:55:14.050Z</time></trkpt><trkpt lat="27.998793" lon="85.555217"><ele>2617.846</ele><time>2025-02-03T10:55:19.050Z</time></trkpt><trkpt lat="27.998756" lon="85.555176"><ele>2616.988</ele><time>2025-02-03T10:55:24.050Z</time></trkpt><trkpt lat="27.998722" lon="85.555140"><ele>2616.116</ele><time>2025-02-03T10:55:29.050Z</time></trkpt><trkpt lat="27.998697" lon="85.555089"><ele>2614.609</ele><time>2025-02-03T10:55:36.050Z</time></trkpt><trkpt lat="27.998654" lon="85.555073"><ele>2615.086</ele><time>2025-02-03T10:55:41.050Z</time></trkpt><trkpt lat="27.998618" lon="85.555037"><ele>2614.494</ele><time>2025-02-03T10:55:46.050Z</time></trkpt><trkpt lat="27.998601" lon="85.554985"><ele>2612.634</ele><time>2025-02-03T10:55:52.050Z</time></trkpt><trkpt lat="27.998563" lon="85.554958"><ele>2612.376</ele><time>2025-02-03T10:55:58.050Z</time></trkpt><trkpt lat="27.998547" lon="85.554907"><ele>2610.397</ele><time>2025-02-03T10:56:03.050Z</time></trkpt><trkpt lat="27.998516" lon="85.554864"><ele>2609.122</ele><time>2025-02-03T10:56:10.050Z</time></trkpt><trkpt lat="27.998493" lon="85.554809"><ele>2607.179</ele><time>2025-02-03T10:56:15.050Z</time></trkpt><trkpt lat="27.998487" lon="85.554758"><ele>2604.918</ele><time>2025-02-03T10:56:20.050Z</time></trkpt><trkpt lat="27.998490" lon="85.554706"><ele>2602.433</ele><time>2025-02-03T10:56:25.050Z</time></trkpt><trkpt lat="27.998527" lon="85.554666"><ele>2599.662</ele><time>2025-02-03T10:56:30.050Z</time></trkpt><trkpt lat="27.998568" lon="85.554697"><ele>2600.083</ele><time>2025-02-03T10:56:36.050Z</time></trkpt><trkpt lat="27.998614" lon="85.554715"><ele>2599.711</ele><time>2025-02-03T10:56:41.050Z</time></trkpt><trkpt lat="27.998665" lon="85.554718"><ele>2598.609</ele><time>2025-02-03T10:56:46.050Z</time></trkpt><trkpt lat="27.998703" lon="85.554687"><ele>2596.268</ele><time>2025-02-03T10:56:50.050Z</time></trkpt><trkpt lat="27.998705" lon="85.554622"><ele>2593.126</ele><time>2025-02-03T10:56:56.050Z</time></trkpt><trkpt lat="27.998725" lon="85.554570"><ele>2590.276</ele><time>2025-02-03T10:57:00.050Z</time></trkpt><trkpt lat="27.998671" lon="85.554567"><ele>2591.418</ele><time>2025-02-03T10:57:05.050Z</time></trkpt><trkpt lat="27.998632" lon="85.554529"><ele>2590.619</ele><time>2025-02-03T10:57:12.050Z</time></trkpt><trkpt lat="27.998591" lon="85.554494"><ele>2590.044</ele><time>2025-02-03T10:57:17.051Z</time></trkpt><trkpt lat="27.998565" lon="85.554445"><ele>2588.411</ele><time>2025-02-03T10:57:23.051Z</time></trkpt><trkpt lat="27.998541" lon="85.554396"><ele>2586.770</ele><time>2025-02-03T10:57:28.051Z</time></trkpt><trkpt lat="27.998497" lon="85.554365"><ele>2586.365</ele><time>2025-02-03T10:57:33.051Z</time></trkpt><trkpt lat="27.998436" lon="85.554357"><ele>2587.418</ele><time>2025-02-03T10:57:39.051Z</time></trkpt><trkpt lat="27.998384" lon="85.554368"><ele>2589.298</ele><time>2025-02-03T10:57:43.051Z</time></trkpt><trkpt lat="27.998365" lon="85.554316"><ele>2587.217</ele><time>2025-02-03T10:57:47.051Z</time></trkpt><trkpt lat="27.998403" lon="85.554281"><ele>2584.709</ele><time>2025-02-03T10:57:51.051Z</time></trkpt><trkpt lat="27.998412" lon="85.554230"><ele>2582.153</ele><time>2025-02-03T10:57:58.051Z</time></trkpt><trkpt lat="27.998357" lon="85.554243"><ele>2584.031</ele><time>2025-02-03T10:58:06.051Z</time></trkpt><trkpt lat="27.998312" lon="85.554252"><ele>2586.081</ele><time>2025-02-03T10:58:10.051Z</time></trkpt><trkpt lat="27.998263" lon="85.554235"><ele>2587.623</ele><time>2025-02-03T10:58:26.051Z</time></trkpt><trkpt lat="27.998216" lon="85.554224"><ele>2589.414</ele><time>2025-02-03T10:58:40.051Z</time></trkpt><trkpt lat="27.998196" lon="85.554174"><ele>2588.149</ele><time>2025-02-03T10:58:50.051Z</time></trkpt><trkpt lat="27.998174" lon="85.554123"><ele>2587.316</ele><time>2025-02-03T10:59:04.051Z</time></trkpt><trkpt lat="27.998126" lon="85.554120"><ele>2589.515</ele><time>2025-02-03T10:59:15.051Z</time></trkpt><trkpt lat="27.998070" lon="85.554127"><ele>2592.590</ele><time>2025-02-03T10:59:23.052Z</time></trkpt><trkpt lat="27.998043" lon="85.554171"><ele>2595.536</ele><time>2025-02-03T10:59:30.052Z</time></trkpt><trkpt lat="27.997999" lon="85.554187"><ele>2598.317</ele><time>2025-02-03T10:59:39.052Z</time></trkpt><trkpt lat="27.997969" lon="85.554139"><ele>2597.918</ele><time>2025-02-03T10:59:56.052Z</time></trkpt><trkpt lat="27.997963" lon="85.554088"><ele>2596.309</ele><time>2025-02-03T11:00:01.052Z</time></trkpt><trkpt lat="27.997957" lon="85.554030"><ele>2594.515</ele><time>2025-02-03T11:00:06.052Z</time></trkpt><trkpt lat="27.997927" lon="85.554081"><ele>2597.873</ele><time>2025-02-03T11:00:11.052Z</time></trkpt><trkpt lat="27.997897" lon="85.554039"><ele>2597.763</ele><time>2025-02-03T11:00:16.052Z</time></trkpt><trkpt lat="27.997916" lon="85.553972"><ele>2594.365</ele><time>2025-02-03T11:00:21.052Z</time></trkpt><trkpt lat="27.997941" lon="85.553924"><ele>2591.326</ele><time>2025-02-03T11:00:25.052Z</time></trkpt><trkpt lat="27.997982" lon="85.553894"><ele>2588.321</ele><time>2025-02-03T11:00:30.052Z</time></trkpt><trkpt lat="27.998033" lon="85.553898"><ele>2586.138</ele><time>2025-02-03T11:00:41.052Z</time></trkpt><trkpt lat="27.998070" lon="85.553865"><ele>2583.167</ele><time>2025-02-03T11:00:46.052Z</time></trkpt><trkpt lat="27.998113" lon="85.553826"><ele>2579.732</ele><time>2025-02-03T11:00:51.052Z</time></trkpt><trkpt lat="27.998146" lon="85.553791"><ele>2577.017</ele><time>2025-02-03T11:00:55.052Z</time></trkpt><trkpt lat="27.998177" lon="85.553748"><ele>2574.187</ele><time>2025-02-03T11:00:59.052Z</time></trkpt><trkpt lat="27.998210" lon="85.553705"><ele>2571.115</ele><time>2025-02-03T11:01:04.052Z</time></trkpt><trkpt lat="27.998253" lon="85.553664"><ele>2567.709</ele><time>2025-02-03T11:01:14.052Z</time></trkpt><trkpt lat="27.998295" lon="85.553645"><ele>2565.243</ele><time>2025-02-03T11:01:18.052Z</time></trkpt><trkpt lat="27.998337" lon="85.553625"><ele>2562.711</ele><time>2025-02-03T11:01:22.052Z</time></trkpt><trkpt lat="27.998374" lon="85.553594"><ele>2561.141</ele><time>2025-02-03T11:01:26.052Z</time></trkpt><trkpt lat="27.998400" lon="85.553550"><ele>2559.273</ele><time>2025-02-03T11:01:30.053Z</time></trkpt><trkpt lat="27.998436" lon="85.553511"><ele>2557.414</ele><time>2025-02-03T11:01:35.053Z</time></trkpt><trkpt lat="27.998477" lon="85.553475"><ele>2555.659</ele><time>2025-02-03T11:01:42.053Z</time></trkpt><trkpt lat="27.998516" lon="85.553442"><ele>2554.056</ele><time>2025-02-03T11:01:47.053Z</time></trkpt><trkpt lat="27.998552" lon="85.553409"><ele>2552.475</ele><time>2025-02-03T11:01:53.053Z</time></trkpt><trkpt lat="27.998590" lon="85.553375"><ele>2550.960</ele><time>2025-02-03T11:01:59.053Z</time></trkpt><trkpt lat="27.998633" lon="85.553359"><ele>2549.841</ele><time>2025-02-03T11:02:13.053Z</time></trkpt><trkpt lat="27.998677" lon="85.553332"><ele>2548.481</ele><time>2025-02-03T11:02:19.053Z</time></trkpt><trkpt lat="27.998702" lon="85.553277"><ele>2547.209</ele><time>2025-02-03T11:02:25.053Z</time></trkpt><trkpt lat="27.998679" lon="85.553231"><ele>2546.809</ele><time>2025-02-03T11:02:30.053Z</time></trkpt><trkpt lat="27.998656" lon="85.553173"><ele>2546.256</ele><time>2025-02-03T11:02:34.053Z</time></trkpt><trkpt lat="27.998622" lon="85.553121"><ele>2545.984</ele><time>2025-02-03T11:02:39.053Z</time></trkpt><trkpt lat="27.998611" lon="85.553064"><ele>2545.114</ele><time>2025-02-03T11:02:44.053Z</time></trkpt></trkseg></trk></gpx>