<?xml version="1.0" encoding="UTF-8"?>
<gpx version="1.1" creator="MyTrails">
  <metadata>
    <name>round</name>
    <time>2026-09-09T06:42:53.843214Z</time>
  </metadata>
  <wpt lat="27.6997066" lon="85.3289514">
    <time>2026-09-09T06:32:42.407223Z</time>
    <ele>1249.9000244140625</ele>
    <name>spot 1</name>
    <sym>viewpoint</sym>
  </wpt>
  <wpt lat="27.7017099" lon="85.32757">
    <time>2026-09-09T06:37:43.036882Z</time>
    <ele>1249.9000244140625</ele>
    <name>hospital</name>
    <desc>dtuh</desc>
    <sym>restArea</sym>
  </wpt>
  <trk>
    <name>round</name>
    <trkseg>
      <trkpt lat="27.6995656" lon="85.3282613">
        <time>2026-09-09T06:30:02.400Z</time>
        <ele>1250.0</ele>
      </trkpt>
      <trkpt lat="27.6995656" lon="85.3282613">
        <time>2026-09-09T06:30:03.601Z</time>
        <ele>1250.0</ele>
      </trkpt>
      <trkpt lat="27.6998689" lon="85.32825">
        <time>2026-09-09T06:30:08.415Z</time>
        <ele>1250.0</ele>
      </trkpt>
      <trkpt lat="27.6996154" lon="85.328261">
        <time>2026-09-09T06:30:13.363Z</time>
        <ele>1250.0</ele>
      </trkpt>
      <trkpt lat="27.6995777" lon="85.3283558">
        <time>2026-09-09T06:30:25.805Z</time>
        <ele>1250.0</ele>
      </trkpt>
      <trkpt lat="27.6995775" lon="85.3284947">
        <time>2026-09-09T06:30:36.581Z</time>
        <ele>1249.9000244140625</ele>
      </trkpt>
      <trkpt lat="27.6995379" lon="85.3285904">
        <time>2026-09-09T06:30:46.579Z</time>
        <ele>1249.9000244140625</ele>
      </trkpt>
      <trkpt lat="27.6996225" lon="85.3287202">
        <time>2026-09-09T06:31:06.573Z</time>
        <ele>1249.9000244140625</ele>
      </trkpt>
      <trkpt lat="27.6996771" lon="85.328856">
        <time>2026-09-09T06:31:21.590Z</time>
        <ele>1249.9000244140625</ele>
      </trkpt>
      <trkpt lat="27.6997325" lon="85.3289402">
        <time>2026-09-09T06:31:31.596Z</time>
        <ele>1249.9000244140625</ele>
      </trkpt>
      <trkpt lat="27.6998586" lon="85.32902">
        <time>2026-09-09T06:33:11.588Z</time>
        <ele>1249.9000244140625</ele>
      </trkpt>
      <trkpt lat="27.6999731" lon="85.3290687">
        <time>2026-09-09T06:33:26.584Z</time>
        <ele>1249.9000244140625</ele>
      </trkpt>
      <trkpt lat="27.7000769" lon="85.3290464">
        <time>2026-09-09T06:33:36.594Z</time>
        <ele>1249.9000244140625</ele>
      </trkpt>
      <trkpt lat="27.7001729" lon="85.3290059">
        <time>2026-09-09T06:33:46.578Z</time>
        <ele>1249.9000244140625</ele>
      </trkpt>
      <trkpt lat="27.7002802" lon="85.3289747">
        <time>2026-09-09T06:33:56.578Z</time>
        <ele>1249.9000244140625</ele>
      </trkpt>
      <trkpt lat="27.70038" lon="85.3289352">
        <time>2026-09-09T06:34:06.594Z</time>
        <ele>1249.9000244140625</ele>
      </trkpt>
      <trkpt lat="27.7004697" lon="85.3288801">
        <time>2026-09-09T06:34:16.578Z</time>
        <ele>1249.9000244140625</ele>
      </trkpt>
      <trkpt lat="27.7005617" lon="85.3288153">
        <time>2026-09-09T06:34:26.586Z</time>
        <ele>1249.9000244140625</ele>
      </trkpt>
      <trkpt lat="27.7006793" lon="85.3287598">
        <time>2026-09-09T06:34:41.574Z</time>
        <ele>1249.9000244140625</ele>
      </trkpt>
      <trkpt lat="27.7007633" lon="85.3286975">
        <time>2026-09-09T06:34:51.577Z</time>
        <ele>1249.9000244140625</ele>
      </trkpt>
      <trkpt lat="27.7008702" lon="85.3286054">
        <time>2026-09-09T06:35:01.577Z</time>
        <ele>1249.9000244140625</ele>
      </trkpt>
      <trkpt lat="27.7009976" lon="85.3285496">
        <time>2026-09-09T06:35:11.583Z</time>
        <ele>1249.9000244140625</ele>
      </trkpt>
      <trkpt lat="27.7011051" lon="85.3285118">
        <time>2026-09-09T06:35:21.575Z</time>
        <ele>1249.9000244140625</ele>
      </trkpt>
      <trkpt lat="27.701185" lon="85.3284499">
        <time>2026-09-09T06:35:31.591Z</time>
        <ele>1249.9000244140625</ele>
      </trkpt>
      <trkpt lat="27.701268" lon="85.3283925">
        <time>2026-09-09T06:35:41.578Z</time>
        <ele>1249.9000244140625</ele>
      </trkpt>
      <trkpt lat="27.7013816" lon="85.3283944">
        <time>2026-09-09T06:35:51.590Z</time>
        <ele>1249.9000244140625</ele>
      </trkpt>
      <trkpt lat="27.7014917" lon="85.3284044">
        <time>2026-09-09T06:36:01.573Z</time>
        <ele>1249.9000244140625</ele>
      </trkpt>
      <trkpt lat="27.7015798" lon="85.3283403">
        <time>2026-09-09T06:36:11.584Z</time>
        <ele>1249.9000244140625</ele>
      </trkpt>
      <trkpt lat="27.7016622" lon="85.3282176">
        <time>2026-09-09T06:36:26.582Z</time>
        <ele>1249.9000244140625</ele>
      </trkpt>
      <trkpt lat="27.7017354" lon="85.328136">
        <time>2026-09-09T06:36:36.596Z</time>
        <ele>1249.9000244140625</ele>
      </trkpt>
      <trkpt lat="27.7017556" lon="85.3280324">
        <time>2026-09-09T06:36:46.578Z</time>
        <ele>1249.9000244140625</ele>
      </trkpt>
      <trkpt lat="27.7017693" lon="85.3278992">
        <time>2026-09-09T06:36:56.584Z</time>
        <ele>1249.9000244140625</ele>
      </trkpt>
      <trkpt lat="27.7017785" lon="85.3277627">
        <time>2026-09-09T06:37:06.583Z</time>
        <ele>1249.9000244140625</ele>
      </trkpt>
      <trkpt lat="27.7017731" lon="85.327645">
        <time>2026-09-09T06:37:16.583Z</time>
        <ele>1249.9000244140625</ele>
      </trkpt>
      <trkpt lat="27.7017099" lon="85.32757">
        <time>2026-09-09T06:37:26.589Z</time>
        <ele>1249.9000244140625</ele>
      </trkpt>
      <trkpt lat="27.7016072" lon="85.3275079">
        <time>2026-09-09T06:37:41.601Z</time>
        <ele>1249.9000244140625</ele>
      </trkpt>
      <trkpt lat="27.7015374" lon="85.3274335">
        <time>2026-09-09T06:37:51.597Z</time>
        <ele>1249.9000244140625</ele>
      </trkpt>
      <trkpt lat="27.7014612" lon="85.3273443">
        <time>2026-09-09T06:38:01.576Z</time>
        <ele>1249.9000244140625</ele>
      </trkpt>
      <trkpt lat="27.7014" lon="85.327217">
        <time>2026-09-09T06:38:11.586Z</time>
        <ele>1271.3999999999999</ele>
      </trkpt>
      <trkpt lat="27.7013086" lon="85.3271261">
        <time>2026-09-09T06:38:21.578Z</time>
        <ele>1273.8999999999999</ele>
      </trkpt>
      <trkpt lat="27.7012428" lon="85.3270171">
        <time>2026-09-09T06:38:31.577Z</time>
        <ele>1276.8999999999999</ele>
      </trkpt>
      <trkpt lat="27.7011547" lon="85.3269773">
        <time>2026-09-09T06:38:41.584Z</time>
        <ele>1275.0</ele>
      </trkpt>
      <trkpt lat="27.701044" lon="85.3269781">
        <time>2026-09-09T06:38:51.592Z</time>
        <ele>1272.5</ele>
      </trkpt>
      <trkpt lat="27.7009213" lon="85.3269476">
        <time>2026-09-09T06:39:01.591Z</time>
        <ele>1273.3</ele>
      </trkpt>
      <trkpt lat="27.7008298" lon="85.3269105">
        <time>2026-09-09T06:39:11.586Z</time>
        <ele>1274.0</ele>
      </trkpt>
      <trkpt lat="27.7007583" lon="85.3268156">
        <time>2026-09-09T06:39:26.584Z</time>
        <ele>1273.6</ele>
      </trkpt>
      <trkpt lat="27.7006711" lon="85.3266927">
        <time>2026-09-09T06:39:46.573Z</time>
        <ele>1272.4</ele>
      </trkpt>
      <trkpt lat="27.7005775" lon="85.3267049">
        <time>2026-09-09T06:39:51.605Z</time>
        <ele>1273.0</ele>
      </trkpt>
      <trkpt lat="27.700465" lon="85.3266719">
        <time>2026-09-09T06:40:01.597Z</time>
        <ele>1272.3</ele>
      </trkpt>
      <trkpt lat="27.7003461" lon="85.3266048">
        <time>2026-09-09T06:40:11.581Z</time>
        <ele>1271.1</ele>
      </trkpt>
      <trkpt lat="27.700231" lon="85.3265835">
        <time>2026-09-09T06:40:21.583Z</time>
        <ele>1267.0</ele>
      </trkpt>
      <trkpt lat="27.7001147" lon="85.3265289">
        <time>2026-09-09T06:40:31.589Z</time>
        <ele>1261.3</ele>
      </trkpt>
      <trkpt lat="27.700028" lon="85.3264642">
        <time>2026-09-09T06:40:41.596Z</time>
        <ele>1257.2</ele>
      </trkpt>
      <trkpt lat="27.6999628" lon="85.3266084">
        <time>2026-09-09T06:40:51.579Z</time>
        <ele>1253.5</ele>
      </trkpt>
      <trkpt lat="27.69992" lon="85.3267514">
        <time>2026-09-09T06:41:01.581Z</time>
        <ele>1248.7</ele>
      </trkpt>
      <trkpt lat="27.699896" lon="85.3268591">
        <time>2026-09-09T06:41:11.597Z</time>
        <ele>1246.0</ele>
      </trkpt>
      <trkpt lat="27.6998977" lon="85.3269663">
        <time>2026-09-09T06:41:21.596Z</time>
        <ele>1244.3</ele>
      </trkpt>
      <trkpt lat="27.6998501" lon="85.327069">
        <time>2026-09-09T06:41:31.573Z</time>
        <ele>1242.0</ele>
      </trkpt>
      <trkpt lat="27.6998337" lon="85.3272515">
        <time>2026-09-09T06:41:41.593Z</time>
        <ele>1240.7</ele>
      </trkpt>
      <trkpt lat="27.6998207" lon="85.3273569">
        <time>2026-09-09T06:41:51.575Z</time>
        <ele>1240.9</ele>
      </trkpt>
      <trkpt lat="27.699746" lon="85.327479">
        <time>2026-09-09T06:42:06.579Z</time>
        <ele>1244.6</ele>
      </trkpt>
      <trkpt lat="27.6997077" lon="85.3276263">
        <time>2026-09-09T06:42:16.584Z</time>
        <ele>1245.1</ele>
      </trkpt>
      <trkpt lat="27.6996986" lon="85.3277646">
        <time>2026-09-09T06:42:26.576Z</time>
        <ele>1246.5</ele>
      </trkpt>
      <trkpt lat="27.6996584" lon="85.3278656">
        <time>2026-09-09T06:42:36.572Z</time>
        <ele>1246.6</ele>
      </trkpt>
      <trkpt lat="27.6996341" lon="85.3279994">
        <time>2026-09-09T06:42:46.727Z</time>
        <ele>1245.7</ele>
      </trkpt>
    </trkseg>
  </trk>
</gpx>